{ "type": "FeatureCollection", "features": [{"type":"Feature","geometry":{"type":"Point","coordinates":[-118.18774,34.104033]},"properties":{"address_city":"Los Angeles","website":"http://www.artinthepark.us/","address_zip":"90042","email":"bertasosa1@yahoo.com","description":"Since 1996 Art in the Park at Arroyo Seco Park in Hermon Park has offered classes to children and youth that tap into the traditions and cultures of the local community and Los Angeles.????? Known for its emphasis on cultural education, the center offers classes for children and teens on the visual and urban arts, including hip hop dance.????? ?????The center also hosts concerts and special events such as the Corn Festival in the spring and Dia de los Muertos Celebration in the fall.????? ?????The Center has been managed and operated by the non-profit organization Art in the Park Community Cultural Programs, Inc., via an agreement between the organization and the City of Los Angeles (DCA). Housed in the Center is the Lalo Guerrero School of Music Program. The program is named in honor of Lalo Guerrero, known as the Father of Chicano Music and an activist, advocate, and seminal figure in music history in the United States?????. The Lalo Guerrero School ?????is an after school music program that focuses on the guitar, the instrument for which Lalo Guerrero is known. Mr. Guerrero would often visit Art in the Park and teach guitar to the young students. In 1997 President William Jefferson Clinton presented Lalo Guerrero the National Medal of the Arts, the nation?????s highest honor in the arts.????? ?????","address_address":"5568 Via Marisol","address_state":"CA","hours":"Sunrise to Sunset","parking":"On site parking","center_name":"Art in the Park at Hermon Park","art_classes":"yes","phone":"(323) 812-2729","council_district":"14"}},{"type":"Feature","geometry":{"type":"Point","coordinates":[-118.257031,33.766449]},"properties":{"address_city":"Wilmington","website":"https://www.portoflosangeles.org/facilities/bannings.asp","address_zip":"90744","email":null,"description":"From Banning High School to Banning's Landing Community Center, the imprint of Phineas Banning on the community of Wilmington is still visible today. Known as the \"Father of Los Angeles Harbor,\" his vision and love for the the Harbor Area is recognized in the many Banning landmarks and sites throughout Wilmington.\n\nIn 1996, the Port of Los Angeles built the distinctively designed, 10,000-square-foot Banning's Landing Community Center as a \"window on the water.\" The building's unique structure is shaped like a ship. Nonprofit organization Friends of Banning's Landing operates the center, which is used to stimulate and support cultural activities. The facility is promoted as a regional resource for the expression and education of cultural traditions and community pride through sponsorship of the arts.","address_address":"100 E. Water Street","address_state":"CA","hours":null,"parking":null,"center_name":"Banning's Landing Community Arts Center","art_classes":"yes","phone":"(310) 847-7704","council_district":"15"}},{"type":"Feature","geometry":{"type":"Point","coordinates":[-118.294958,34.101761]},"properties":{"address_city":"Los Angeles","website":"http://www.barnsdallonline.com","address_zip":"90027","email":"jacbac@sbcglobal.net","description":"The Barnsdall Art Center (BAC), a program for adults, has been providing college level arts instruction at low cost for over 50 years. This program of extremely popular classes in the visual and performing arts is presented by a select staff of instructors drawn from the art departments of prestigious colleges and universities, art schools, and other exemplary institutions. Many of the instructors are working professionals whose work is exhibited locally, nationally and internationally. The primary disciplines taught are drawing, painting, ceramics, jewelry, sculpture, and photography. Workshops teaching various art forms provide additional richness, and the uninstructed life-drawing workshops offer independent work to those involved, from the model to advanced students and professional artists. The BAC has earned its reputation for challenging instruction in small informal classes and an atmosphere of a community.","address_address":"4814 Hollywood Boulevard","address_state":"CA","hours":"Monday - Friday, 9:00AM - 9:30PM, and Saturday, 9:00AM to 6:30PM","parking":"Limited on-site parking on a first-come first-served basis","center_name":"Barnsdall Art Center","art_classes":"yes","phone":"(323) 644-6295","council_district":"13"}},{"type":"Feature","geometry":{"type":"Point","coordinates":[-118.294958,34.101761]},"properties":{"address_city":"Los Angeles","website":"http://barnsdall.org/barnsdall-gallery-theater/","address_zip":"90027","email":"info@BGTTix.com","description":"The Barnsdall Gallery Theatre (BGT) is owned and operated by the City of Los Angeles, Department of Cultural Affair?????s Community Arts Division, as a low??-priced rental house available for live theatre, dance, music, spoken word, lecture, film and special events.\n\nThe Theatre is a 299-seat proscenium stage with a basic lighting and sound package, as well as a high ??definition digital projector and a built-??in 16mm film, slide and video projector. The Theatre?????s goal is to encourage community and professional producers to present artistic and diverse cultural events at the lowest possible admission price to maximize attendance and audience engagement.","address_address":"4814 Hollywood Boulevard","address_state":"CA","hours":"Administrative Office open, Wednesday - Friday, 12:00PM - 5:00PM","parking":"Limited on-site parking on a first-come first-served basis","center_name":"Barnsdall Gallery Theatre","art_classes":"yes","phone":"(323) 644-6272","council_district":"13"}},{"type":"Feature","geometry":{"type":"Point","coordinates":[-118.294958,34.101761]},"properties":{"address_city":"Los Angeles","website":"http://www.barnsdallonline.com","address_zip":"90027","email":"jacbac@sbcglobal.net","description":"The love of children, the love of childhood, and the love of the arts have been the basis of arts programming for children, youth and their families at the Barnsdall Junior Arts Center (JAC) since 1967. The Center is known nationwide as one of a small number of distinguished institutions devoted to excellence, originality, public service and artistic creativity. The Center has provided resources and impetus for extensive, quality arts programming reaching the diverse communities of a dynamic city. The JAC offers extensive arts programs to children and youth, ages 3 ????? 17. Art instruction held at the Center throughout the year includes drawing, painting, theatre games, printmaking, photography, sculpture, cartooning, art of clay and more. Parent-Child classes are also available.\n\nThe Barnsdall JAC Gallery is a 2,000 square foot venue that offers an intimate space for artists who have produced a significant body of high quality work, as well as smaller thematic group shows. The Gallery produces five to six exhibitions in the calendar year, and continues the Center?????s almost 50 years mission of promoting and presenting to the general public the art of JAC Students, JAC and Barnsdall Art Center (BAC) Students, and artists from culturally diverse Southern California.","address_address":"4814 Hollywood Boulevard","address_state":"CA","hours":"Monday - Friday, 9:00AM to 6:00PM, and Saturday from 9:00AM to 5:00PM","parking":"Limited on-site parking on a first-come first-served basis","center_name":"Barnsdall Junior Arts Center","art_classes":"yes","phone":"(323) 644-6275","council_district":"13"}},{"type":"Feature","geometry":{"type":"Point","coordinates":[-118.294958,34.101761]},"properties":{"address_city":"Los Angeles","website":"http://www.barnsdallonline.com","address_zip":"90027","email":"jacbac@sbcglobal.net","description":"The love of children, the love of childhood, and the love of the arts have been the basis of arts programming for children, youth and their families at the Barnsdall Junior Arts Center (JAC) since 1967. The Center is known nationwide as one of a small number of distinguished institutions devoted to excellence, originality, public service and artistic creativity. The Center has provided resources and impetus for extensive, quality arts programming reaching the diverse communities of a dynamic city. The JAC offers extensive arts programs to children and youth, ages 3 ????? 17. Art instruction held at the Center throughout the year includes drawing, painting, theatre games, printmaking, photography, sculpture, cartooning, art of clay and more. Parent-Child classes are also available.\n\nThe Barnsdall JAC Gallery is a 2,000 square foot venue that offers an intimate space for artists who have produced a significant body of high quality work, as well as smaller thematic group shows. The Gallery produces five to six exhibitions in the calendar year, and continues the Center?????s almost 50 years mission of promoting and presenting to the general public the art of JAC Students, JAC and Barnsdall Art Center (BAC) Students, and artists from culturally diverse Southern California.","address_address":"4814 Hollywood Boulevard","address_state":"CA","hours":"Monday - Friday, 9:00AM to 6:00PM, and Saturday from 9:00AM to 5:00PM","parking":"Limited on-site parking on a first-come first-served basis","center_name":"Barnsdall Junior Arts Center Gallery","art_classes":"yes","phone":"(323) 644-6275","council_district":"13"}},{"type":"Feature","geometry":{"type":"Point","coordinates":[-118.243388,34.054094]},"properties":{"address_city":"Los Angeles","website":"http://culturela.org/cultural-centers/bridge-gallery-city-hall/","address_zip":"90012","email":"Mary.Oliver@lacity.org","description":"DCA's Bridge Gallery at City Hall showcases the work of young people, adults, and seniors enrolled in City art programs, as well as themed exhibitions celebrating the City's Heritage Month Celebrations.","address_address":"200 North Spring Street","address_state":"CA","hours":"Monday - Friday, 9:00AM - 5:00PM","parking":"Lot across the street","center_name":"Bridge Gallery at City Hall","art_classes":"no","phone":"(213) 473-3231","council_district":"9"}},{"type":"Feature","geometry":{"type":"Point","coordinates":[-118.600273,34.201701]},"properties":{"address_city":"Canoga Park","website":"http://culturela.org/cultural-centers/canoga-park-youth-arts-center/","address_zip":"91303","email":"stuart.vaughan@lacity.org","description":"The Canoga Park Youth Arts Center is located in a historic building that once served as the first operator assisted phone company in San Fernando valley. The exterior of the mission style building has been restored, while the interior has been converted into a contemporary youth arts center.\n\nThe facility, which was funded by Prop K Recreation and Parks, includes a gallery, workshops and studios, a computer lab, an exhibition space, and a garden classroom.\n\nThe center?????s mission is to bring quality innovative arts programming to the community by offering art classes to youth 6-17 years of age. The staff of educators are comprised of professional from the Los Angeles art community. The center?????s philosophy includes creating an environment to encourage interaction between professional artists and youth.","address_address":"7222 Remmet Avenue","address_state":"CA","hours":"Office hours Monday - Friday 9:00AM - 5:00PM; During sessions the center is open until 7:30 Tuesday, Wednesday,Thursday and Saturdays 9 - 5","parking":"facilty parking and street parking","center_name":"Canoga Park Youth Arts Center","art_classes":"yes","phone":"(818) 346-7099","council_district":"3"}},{"type":"Feature","geometry":{"type":"Point","coordinates":[-118.214975,34.139261]},"properties":{"address_city":"Los Angeles","website":"http://cfaer.org","address_zip":"90041","email":"melinda@cfaer.org","description":"Center for the Arts Eagle Rock (CFAER) was established in 1998 in order to strengthen the economic, social, and creative vitality of Northeast LA through the arts. Since then, it has become the area?????s premiere multidisciplinary arts presenter and educator. Housed in a historic Carnegie library building in Eagle Rock, CFAER serves as a dynamic cultural hub for all of Northeast LA, with a particular commitment to engaging with the area?????s low-income residents, at-risk youth, and working artists.\n\nOur mission is to be innovative in providing multidisciplinary arts-inclusive programming to the diverse communities of Northeast LA and beyond.\n\nWe present arts and education programs and experiences year-round at our historic Mediterranean Revival building and throughout the community at no or very little cost. Our core programs include multidisciplinary events, such as concerts, readings, film screenings, and community artist collaborations that feature a range of disciplines, styles, and cultures, and target audiences of all ages. We present a yearly art auction featuring works from emerging and mid-career artists as well as the much loved Eagle Rock Music Festival. CFAER?????s arts education programming includes Imagine Studio, offering standards based arts enrichment classes taught by working contemporary artists, free to Title1 schools throughout Northeast Los Angeles well as a children?????s summer arts camp and year-round children?????s and adults????? workshops. The Center is proud to play a vital role in connecting our community and beyond to the transformative power of the arts.","address_address":"2225 Colorado Blvd","address_state":"CA","hours":"Monday - Friday, 11:00AM - 5:00PM","parking":"Street parking only","center_name":"Center for the Arts Eagle Rock","art_classes":"yes","phone":"(323) 561-3044","council_district":"14"}},{"type":"Feature","geometry":{"type":"Point","coordinates":[-118.503054,34.15971]},"properties":{"address_city":"Encino","website":null,"address_zip":"91316","email":"encino.communitycenter@lacity.org","description":null,"address_address":"16953 Ventura Boulevard","address_state":"CA","hours":"Closed for repairs","parking":null,"center_name":"Encino Arts and Cultural Center","art_classes":"no","phone":"(818) 995-1690","council_district":"5"}},{"type":"Feature","geometry":{"type":"Point","coordinates":[-118.294505,34.101763]},"properties":{"address_city":"Los Angeles","website":"http://barnsdall.org","address_zip":"90027","email":"hollyhock@barnsdall.org","description":"Hollyhock House was designed by American?????s most important 20th century architect, Frank Lloyd Wright. The house was commissioned by oil heiress and theatre producer Aline Barnsdall. It was built between 1919 and 1921. Aline Barnsdall was also a philanthropist and in 1927 gave the house and the surrounding twelve acres atop Olive Hill (now Barnsdall Park) to the City of Los Angeles as a memorial to her father Theodore.\n\nHollyhock House is named for Barnsdall?????s favorite flower ????? the hollyhock. Wright chose to create an abstract design of the flower which he then used comprehensively to create the unique decorative frieze elements that encircle the residence, inform the furniture and textiles, and even the floor plan.\n\nIn 2012 Hollyhock House underwent an extensive restoration of the public rooms which are now open for visitors to tour. It is the only Frank Lloyd Wright residence in Los Angeles open to the public.\n\nHollyhock House is a National Historic Landmark and has been nominated to be placed on the UNESCO World Heritage List.","address_address":"4800 Hollywood Boulevard","address_state":"CA","hours":"Thursday - Sunday, 11:00AM - 3:00PM","parking":"On-site parking","center_name":"Hollyhock House","art_classes":"no","phone":"(323) 913-4030","council_district":"13"}},{"type":"Feature","geometry":{"type":"Point","coordinates":[-118.37357,34.163134]},"properties":{"address_city":"North Hollywood","website":"http://www.lankershimartscenter.com","address_zip":"91601","email":"administrator@lankershimartscenter.com","description":"The Historic Lankershim Arts Center is an all-inclusive arts facility located in the heart of North Hollywood in the NoHo Arts District. For several years, the Center has been operated by The Other Side of the Hill Productions, Inc., a registered not-for-profit company, providing quality theatre, fine art and various arts programs. The Center is home to the award-winning Road Theatre Company, Gallery 800, and many arts programs geared to the growing NoHo arts community. Built circa 1939 as a Department of Water & Power Building, the Lankershim Arts Center was renovated and transformed into an arts center by the Department of Cultural Affairs of the City of Los Angeles. It is now a registered cultural landmark.","address_address":"5108 Lankershim Blvd","address_state":"CA","hours":"Office hours Monday - Friday, 1:00PM - 5:00PM; Gallery Thursday - Saturday, 2:00PM - 8:00PM & Sunday, 2:00PM - 6:00PM; Classes, Tuesday 7:00PM - 11:00PM, Sat 10:00AM - 12:30PM; theatre performances and other events vary","parking":"Street parking only","center_name":"Lankershim Arts Center","art_classes":"no","phone":"(818) 752-7568","council_district":"2"}},{"type":"Feature","geometry":{"type":"Point","coordinates":[-118.211259,34.075482]},"properties":{"address_city":"Los Angeles","website":"http://culturela.org/cultural-centers/lincoln-heights-youth-arts-center/","address_zip":"90031","email":"DCA.MusicLA@lacity.org","description":"DCA's Music LA at the Lincoln Heights Junior Arts Center is a music education program that coordinates resources to provide students with high quality music education where few or no arts education programs exist. Music LA provides training in musical genres like mariachi, son jarocho, pow wow style drumming, jazz, traditional Korean music, and more.\n\nThe Lincoln Heights Junior Arts Center is part of the Lincoln Heights Youth Center complex, which is a renovated 2-story church building constructed in 1930 with subsequent additions built in the 1970s. The complex houses four components: an outdoor roller hockey rink, a boxing gymnasium, a youth center, and a junior arts center; and is jointly operated by the Department of Recreation and Parks (DRP) and DCA. The complex has approximately 9,000 square feet of space (including the outdoor hockey rink), with the Junior Arts Center occupying approximately one-third of the building. Funding for the renovation of the complex was provided through Proposition K funds.","address_address":"2911 Altura Street","address_state":"CA","hours":"Office hours Monday - Friday, 9:30AM - 5:30PM; Facility hours Monday - Friday, 12:00PM - 8:00PM, Saturday, 10:00AM - 2:00PM; Closed Sundays & Holidays.","parking":"Limited facility parking and residential, non-metered parking  ","center_name":"Lincoln Heights Youth Arts Center","art_classes":"no","phone":"(323) 224-0928","council_district":"1"}},{"type":"Feature","geometry":{"type":"Point","coordinates":[-118.294505,34.101763]},"properties":{"address_city":"Los Angeles","website":"http://www.lamag.org/","address_zip":"90027","email":"info@lamag.org","description":"The Los Angeles Municipal Art Gallery (LAMAG) is a facility of the City of Los Angeles Department of Cultural Affairs. Founded and opened in 1954, its mission is to promote, interpret, and present the art of emerging, mid career, and established artists from culturally diverse Southern California. The Gallery showcases art from other parts of the world that is of relevance to the people of the City of Los Angeles.\n\nIts 10,000 square foot venue offers a dramatic exhibition space for large thematic group exhibitions that represent the current endeavors of area artists as well as exhibitions of work by individuals who have made a significant contribution to art in Los Angeles in particular and Southern California at large.\n\nThe curatorial focus of the Gallery includes painting, sculpture, photography, architecture, design, video, sound, electronic, performance, and installation works. Once a year the Gallery serves as the host venue for the DCA?????s City of Los Angeles (C.O.L.A.) Individual Artist Fellowships exhibition, featuring the work of the City?????s best mid-career artists.","address_address":"4800 Hollywood Boulevard","address_state":"CA","hours":"Thursday - Sunday, 12pm - 5pm\nFirst Fridays, noon to 9 pm\n","parking":"On site parking","center_name":"Los Angeles Municipal Art Gallery","art_classes":"no","phone":"(323) 644-6269\n","council_district":"13"}},{"type":"Feature","geometry":{"type":"Point","coordinates":[-118.250118,34.046869]},"properties":{"address_city":"Los Angeles","website":"http://thelatc.org/","address_zip":"90013","email":"info@latinotheater.com","description":"The Los Angeles Theatre Center is a facility of the City of Los Angeles, Department of Cultural Affairs and is operated by the Latino Theater Company, a 501(c)3 non-profit organization.\n\nThe Los Angeles Theatre Center produces theater, dance, and music programming, along with creating summits and artistic discussions for peoples of all cultures. Accordingly, LATC is committed to commissioning new plays, training young actors, writers, and theater artists, providing arts education, and creating international cultural exchange with artists and audiences from around the globe.","address_address":"514 South Spring Street, 2nd Floor","address_state":"CA","hours":"Monday - Friday, 10:00AM-6:00PM; Theaters in operation Thursday - Monday, building closes between 10:00PM and 10:30PM ","parking":"Private parking lots next to, across the street, and behind the building that range from $7-$12, and $20 during Artwalk","center_name":"Los Angeles Theatre Center","art_classes":"no","phone":"(213) 489-0994","council_district":"14"}},{"type":"Feature","geometry":{"type":"Point","coordinates":[-118.600981,34.201026]},"properties":{"address_city":"Canoga Park","website":"http://madridtheatre.culturela.org/","address_zip":"91303","email":"madrid.booking@lacity.org","description":"The Madrid Theatre is a 440-seat professional-level performing arts facility located in the heart of historic ?????Antique Row????? in downtown Canoga Park, California. This state-of-the-art theatre has been constructed on the site of the original Madrid Theatre movie house, destroyed in the 1994 Northridge earthquake. Once called ?????the largest theatre on the smallest piece of land in the United States?????, the Madrid Theatre is operated as a reasonably priced rental house for live theatre, dance, and musical presentations.\n\nOur goal is to encourage the presentation of artistic and cultural events at reasonable admission prices and to maximize attendance and audience development.","address_address":"21622 Sherman Way","address_state":"CA","hours":"Tuesday - Thursday, 10:00AM - 6:00PM","parking":"Public Parking is conveniently located nearby","center_name":"Madrid Theatre","art_classes":"no","phone":"(818) 347-9419","council_district":"3"}},{"type":"Feature","geometry":{"type":"Point","coordinates":[-118.330959,34.004248]},"properties":{"address_city":"Los Angeles","website":"http://www.thevisiontheater.com","address_zip":"90008","email":"leimertparkvisiontheatre@gmail.com","description":"A large neighborhood movie palace, this 1931 Spanish-style art-Deco wonder has retained its importance to the community for over 80 years since it first opened as the Leimert Theatre in 1931. It became a neighborhood movie theater soon after opening and was operated by Fox West Coast Theaters. Designed in a classic southern California streamlined Spanish Colonial style, the tall steel frame on top of the lower stucco clad tower originally had the theater?????s name on it, and is a landmark for the area.\n\nActress Marla Gibbs purchased the theater in 1990, and renamed it the Vision Theatre. The theater fell on hard times after the 1992 uprising and the economic recession which hit this area of Los Angeles. The bank foreclosed on the property in 1997 and the City took it over. The theater was later converted into a performing arts center and participated each year in the Pan African Film Festival.\n\nThe Vision Theatre completed a $11 million renovation in 2011 and final construction on phases II, III and IV began October 2015 to reconfigure seating within the existing walls, add a lounge area under the seating, enlarge the stage, add a fly loft with office spaces, and build lower level dressing rooms, green rooms, trap room, technical staff office space, and orchestra pit.\n\nThe goals of the Vision Theatre is to provide a performing arts venue for professional performing arts presentations and productions; a training center for diverse cultural talent reflective of the surrounding Leimert Park and Baldwin Hills community; to produce and present diverse world class theater, music, and dance concert productions, along with offering a variety of cultural forums; and to serve as a center for community meetings.","address_address":"3341 West 43rd Place","address_state":"CA","hours":"Monday - Saturday, 12:00PM - 8:00PM","parking":"Off Street Parking in the Vision Theater Lot 764","center_name":"Manchester Youth Arts Center","art_classes":"yes","phone":"(323) 290-2386","council_district":"10"}},{"type":"Feature","geometry":{"type":"Point","coordinates":[-118.29777,34.250669]},"properties":{"address_city":"Tujunga","website":"http://www.mcgroartyartscenter.org/","address_zip":"91042","email":"info@mcgroartyartscenter.org","description":"McGroarty Arts Center provides access to the arts through in-depth arts instruction and experiences. Affordable or free multidisciplinary arts instruction is offered to at-risk youth, children, and families, as are performances, exhibitions and events that engage the greater public. The Center is a venue for artists to present their work, while preserving the legacy of John Steven McGroarty and his historic home.\n\nSince 1995, McGroarty Arts Center has been operated by a non-profit organization (known as Friends of the McGroarty Arts Center), in partnership with the Department of Cultural Affairs, City of Los Angeles.","address_address":"7570 McGroarty Terrace","address_state":"CA","hours":"Office Hours Monday - Friday, 8:30AM - 6:00PM; Classes Monday - Saturday ","parking":"On site and street parking  ","center_name":"McGroarty Arts Center","art_classes":"yes","phone":"(818) 352-0865","council_district":"2"}},{"type":"Feature","geometry":{"type":"Point","coordinates":[-118.342189,34.03977]},"properties":{"address_city":"Los Angeles","website":"http://www.ebonyrep.org/nhpac.htm","address_zip":"90016","email":"info@ebonyrep.org","description":"The Nate Holden Performing Arts Center (NHPAC) is a facility of the City of Los Angeles department of Cultural Affairs operated by the Ebony Repertory Theatre (ERT).\n\nThe Nate Holden Performing Arts Center is a world class, state-of-the-art performing arts regional center primed for local, national and international events that sits on the grounds of the former Ebony Showcase Theatre, founded by Nick and Edna Stewart.","address_address":"4718 West Washington Boulevard","address_state":"CA","hours":null,"parking":"Complimentary parking is available at one of two lots one block east of the theatre, located on the corner of Washington and Vineyard.","center_name":"Nate Holden Performing Arts Center","art_classes":"yes","phone":"(323) 964-9768","council_district":"10"}},{"type":"Feature","geometry":{"type":"Point","coordinates":[-118.366065,34.227118]},"properties":{"address_city":"Sun Valley","website":"http://culturela.org/cultural-centers/sun-valley-youth-arts-centerstone-house/","address_zip":"91352","email":"Jesus.Rangel@LACity.org","description":"Opened in 2006, the Sun Valley Youth Arts Center mission is to provide quality visual and performing arts programming to the community of Sun Valley and schools in the greater Los Angeles area. The facility functions as a cultural Mecca, a utopian learning center for youth to indulge in a fine arts experience with a variety of workshops such as painting, drawing, digital imaging, graphic design, game design, photography, movie and video production, toy design, screen printing, street art, mix media, culinary arts and cake decorating, sculpture,  ceramics, music, and theatre classes. The capacity of each discipline will entice students to learn the fundamentals of each medium and genre of the visual and performing arts.\n\nThe Center also celebrates Sun Valley?????s multicultural communities with numerous cultural events throughout the year such as D??a de los Muertos, Afro-Cuban Music and Arts Festival, and Asian and Chinese New Years celebrations.\n\nIn addition, the facility is utilized as a meeting place for artists and organizations to entertain. We hope to create a local artist market to help promote local and international artists to exhibit their work in the Sun Valley Youth Arts Center Gallery and enhance the art experience with the community.\n\nThe Sun Valley Youth Arts Center is a wonderful asset to the existing landscape of Sun Valley and will continue to build bridges with the surrounding communities and schools in the City of Los Angeles, Council District 6.\n\nSince 1987, the Stone House is registered as one of Los Angeles historical landmarks and serves as administrative office space and a digital lab for the Sun Valley Youth Arts Center.","address_address":"8642 Sunland Boulevard","address_state":"CA","hours":"Monday - Friday, 9:00AM - 6:00PM, Saturday, 9:00AM - 3:00PM ","parking":"Limited facility parking and street parking","center_name":"Sun Valley Youth Arts Center","art_classes":"yes","phone":"(818) 252-4619","council_district":"6"}},{"type":"Feature","geometry":{"type":"Point","coordinates":[-118.491996,34.201222]},"properties":{"address_city":"Van Nuys","website":"http://culturela.org/programs-and-initiatives/partnered-art-program-between-the-department-of-cultural-affairs-dca-and-the-los-angeles-world-airports-lawa/","address_zip":"91406","email":null,"description":"In 2000 the Department of Cultural Affairs entered into an agreement with the Los Angeles World Airports to administer the Art Program at LAX and LA/Ontario International Airports, and the LAX FlyAway® bus terminal. The purpose of the LAWA Art Program is to provide opportunities for educational, entertaining, and enriching cultural experiences for the traveling public. The Art Program showcases local and regional artists through temporary exhibitions, site-specific performances, and permanent public art installations, which enhance and humanize the overall travel experience for millions every year.","address_address":"16461 Sherman Way","address_state":"CA","hours":null,"parking":null,"center_name":"Van Nuys World Airport","art_classes":"no","phone":"(818) 442-6500","council_district":"6"}},{"type":"Feature","geometry":{"type":"Point","coordinates":[-118.330959,34.004248]},"properties":{"address_city":"Los Angeles","website":"http://www.thevisiontheater.com","address_zip":"90008","email":"leimertparkvisiontheatre@gmail.com","description":"A large neighborhood movie palace, this 1931 Spanish-style art-Deco wonder has retained its importance to the community for over 80 years since it first opened as the Leimert Theatre in 1931. It became a neighborhood movie theater soon after opening and was operated by Fox West Coast Theaters. Designed in a classic southern California streamlined Spanish Colonial style, the tall steel frame on top of the lower stucco clad tower originally had the theater?????s name on it, and is a landmark for the area.\n\nActress Marla Gibbs purchased the theater in 1990, and renamed it the Vision Theatre. The theater fell on hard times after the 1992 uprising and the economic recession which hit this area of Los Angeles. The bank foreclosed on the property in 1997 and the City took it over. The theater was later converted into a performing arts center and participated each year in the Pan African Film Festival.\n\nThe Vision Theatre completed a $11 million renovation in 2011 and final construction on phases II, III and IV began October 2015 to reconfigure seating within the existing walls, add a lounge area under the seating, enlarge the stage, add a fly loft with office spaces, and build lower level dressing rooms, green rooms, trap room, technical staff office space, and orchestra pit.\n\nThe goals of the Vision Theatre is to provide a performing arts venue for professional performing arts presentations and productions; a training center for diverse cultural talent reflective of the surrounding Leimert Park and Baldwin Hills community; to produce and present diverse world class theater, music, and dance concert productions, along with offering a variety of cultural forums; and to serve as a center for community meetings.","address_address":"3341 West 43rd Place","address_state":"CA","hours":"Monday - Saturday, 12:00PM - 8:00PM","parking":"Off Street Parking in the Vision Theater Lot 764","center_name":"Vision Theatre","art_classes":"yes","phone":"(323) 290-2386","council_district":"10"}},{"type":"Feature","geometry":{"type":"Point","coordinates":[-118.287194,33.738754]},"properties":{"address_city":"San Pedro","website":"http://grandvision.org","address_zip":"90731","email":"Lee.Sweet@lacity.org","description":"The Warner Grand Theatre (WGT) opened in 1931, one of three Art Deco/Moderne ?????neighborhood picture palaces????? built by Warner Brothers Studio in the Los Angeles area. Seating for 1,489 patrons is split between a main floor orchestra (889) and a mezzanine loge and balcony (600). While built as a movie theater, Warner Grand today features a proscenium stage (50????_ W x 32????_ D) with a T-guided flys system suited to presenting concerts, dance, musicals, comedy and drama, and film screenings.\n\nThe City of Los Angeles acquired Warner Grand Theatre in 1996 and assigned operations and programming to the Department of Cultural Affairs (DCA). Since that time, DCA has operated the facility as a low-cost rental and presenting house with a mission to make the facility and its resources available to artists and companies from around the City, and for use by local community groups and partners at an affordable cost.\n\nIn addition to an annual slate of perennial and new productions, Warner Grand Theatre is a familiar and popular site for filming and video of commercials, tv and film and music videos, and weddings and other special events.\n\nPromotion and marketing of shows and events, equipment upgrades and restoration and renovation of the aesthetic features of the facility are accomplished through a partnership with Grand Vision Foundation, a San Pedro-based nonprofit that serves as the official Friends group of the Warner Grand Theatre.","address_address":"478 W 6th St","address_state":"CA","hours":"Monday - Sunday, 10:00AM to 5:00PM","parking":"Parking is at street meters and metered City parking lots on all streets surrounding WGT. Meters are \"live\" until 6pm Mon - Sat. Parking is free all day on Sunday.","center_name":"Warner Grand Theatre","art_classes":"no","phone":"(310) 548-2493","council_district":"15"}},{"type":"Feature","geometry":{"type":"Point","coordinates":[-118.241932,33.938627]},"properties":{"address_city":"Los Angeles","website":"http://www.wattstowers.org","address_zip":"90002","email":"watts.towers1@lacity.org","description":"Since its inception in 1961, the City of Los Angeles Department of Cultural Affairs????? Watts Towers Arts Center, and the later-built Charles Mingus Youth Arts Center, located in the heart of Watts on a campus that includes Simon Rodia?????s Watts Towers, have provided programs designed for cultural enrichment. Classes for both teachers and students in painting, sculpture, photography, music, dance, gardening, tiling, and other multi-media arts are presented in a safe, non-competitive creative atmosphere under the guidance and direction of professional artists. Tours and lectures, as well as permanent and changing exhibitions by outstanding local and international artists, are offered year round.\n\nDCA?????s Watts Towers Arts Campus has served as a beacon of light for arts education and a conduit for social change. It continues to support and present master artists and to nurture aspiring young people. This arts education institution, which is the only tourist destination in Watts, continues to serve not only our local Southern California community, but the world at large, as is evidenced by its large number of international visitors. Through its exhibitions, tours, and other programs, the WTAC has been associated with, and presented, more than 1,000 artists in numerous disciplines including: visual arts, filmmaking, writing, music, and performing arts, in addition to its substantial museum and arts educational programming.\n\nThe Watts Towers Arts Center is internationally known for its association with, and development of, master artists. Just like Simon Rodia, and in spite of the tremendous, measurable success of our world renowned, master artists, many still find themselves outside the range for inclusion in many of the existing art institutions.\n\nDuring the last weekend of September, DCA?????s Watts Towers Arts Center produces the annual Watts Towers Day of the Drum Festival and the Simon Rodia Watts Towers Jazz Festival. Both events embrace the concept of multiculturalism and draw crowds from all parts of the city and around the world. The Watts Towers Day of the Drum Festival is dedicated to percussion and the traditional role of drumming in human societies. The Simon Rodia Watts Towers Jazz Festival, the oldest festival in Los Angeles, pays tribute to the American music forms of Jazz, Gospel, and Blues ????? and takes it to the Avant Garde and Latin Jazz scene. The performers represent the diverse cultures in Los Angeles and some of the finest talent in drumming and jazz today. The festival brings visitors, including children, together with community service organization, retail and food vendors, artisans, and musicians. Each year, thousands of people from all over the world are attracted to the site to see the Watts Towers, hear the story of their creation, and participate in the programs DCA provides.\n\nThe galleries at the Watts Towers Campus include the Noah Purifoy Gallery, the Charles Mingus Gallery, and the Dr. Joseph and Bootsie Howard Gallery.","address_address":"1727 East 107th Street","address_state":"CA","hours":"Wednesday- Saturday, 10:00AM - 4:00PM; Sunday, 12:00PM - 4:00PM","parking":"Off-street parking, lot available","center_name":"Watts Towers Campus - Charles Mingus Youth Arts Center","art_classes":"yes","phone":"(213) 847-4646","council_district":"15"}},{"type":"Feature","geometry":{"type":"Point","coordinates":[-118.241932,33.938627]},"properties":{"address_city":"Los Angeles","website":"http://www.wattstowers.org","address_zip":"90002","email":"watts.towers1@lacity.org","description":"Since its inception in 1961, the City of Los Angeles Department of Cultural Affairs????? Watts Towers Arts Center, and the later-built Charles Mingus Youth Arts Center, located in the heart of Watts on a campus that includes Simon Rodia?????s Watts Towers, have provided programs designed for cultural enrichment. Classes for both teachers and students in painting, sculpture, photography, music, dance, gardening, tiling, and other multi-media arts are presented in a safe, non-competitive creative atmosphere under the guidance and direction of professional artists. Tours and lectures, as well as permanent and changing exhibitions by outstanding local and international artists, are offered year round.\n\nDCA?????s Watts Towers Arts Campus has served as a beacon of light for arts education and a conduit for social change. It continues to support and present master artists and to nurture aspiring young people. This arts education institution, which is the only tourist destination in Watts, continues to serve not only our local Southern California community, but the world at large, as is evidenced by its large number of international visitors. Through its exhibitions, tours, and other programs, the WTAC has been associated with, and presented, more than 1,000 artists in numerous disciplines including: visual arts, filmmaking, writing, music, and performing arts, in addition to its substantial museum and arts educational programming.\n\nThe Watts Towers Arts Center is internationally known for its association with, and development of, master artists. Just like Simon Rodia, and in spite of the tremendous, measurable success of our world renowned, master artists, many still find themselves outside the range for inclusion in many of the existing art institutions.\n\nDuring the last weekend of September, DCA?????s Watts Towers Arts Center produces the annual Watts Towers Day of the Drum Festival and the Simon Rodia Watts Towers Jazz Festival. Both events embrace the concept of multiculturalism and draw crowds from all parts of the city and around the world. The Watts Towers Day of the Drum Festival is dedicated to percussion and the traditional role of drumming in human societies. The Simon Rodia Watts Towers Jazz Festival, the oldest festival in Los Angeles, pays tribute to the American music forms of Jazz, Gospel, and Blues ????? and takes it to the Avant Garde and Latin Jazz scene. The performers represent the diverse cultures in Los Angeles and some of the finest talent in drumming and jazz today. The festival brings visitors, including children, together with community service organization, retail and food vendors, artisans, and musicians. Each year, thousands of people from all over the world are attracted to the site to see the Watts Towers, hear the story of their creation, and participate in the programs DCA provides.\n\nThe galleries at the Watts Towers Campus include the Noah Purifoy Gallery, the Charles Mingus Gallery, and the Dr. Joseph and Bootsie Howard Gallery.","address_address":"1727 East 107th Street","address_state":"CA","hours":"Wednesday- Saturday, 10:00AM - 4:00PM; Sunday, 12:00PM - 4:00PM","parking":"Off-street parking, lot available","center_name":"Watts Towers Campus - Dr. Joseph and Bootsie Howard Gallery","art_classes":"yes","phone":"(213) 847-4646","council_district":"15"}},{"type":"Feature","geometry":{"type":"Point","coordinates":[-118.241932,33.938627]},"properties":{"address_city":"Los Angeles","website":"http://www.wattstowers.org","address_zip":"90002","email":"watts.towers1@lacity.org","description":"Since its inception in 1961, the City of Los Angeles Department of Cultural Affairs????? Watts Towers Arts Center, and the later-built Charles Mingus Youth Arts Center, located in the heart of Watts on a campus that includes Simon Rodia?????s Watts Towers, have provided programs designed for cultural enrichment. Classes for both teachers and students in painting, sculpture, photography, music, dance, gardening, tiling, and other multi-media arts are presented in a safe, non-competitive creative atmosphere under the guidance and direction of professional artists. Tours and lectures, as well as permanent and changing exhibitions by outstanding local and international artists, are offered year round.\n\nDCA?????s Watts Towers Arts Campus has served as a beacon of light for arts education and a conduit for social change. It continues to support and present master artists and to nurture aspiring young people. This arts education institution, which is the only tourist destination in Watts, continues to serve not only our local Southern California community, but the world at large, as is evidenced by its large number of international visitors. Through its exhibitions, tours, and other programs, the WTAC has been associated with, and presented, more than 1,000 artists in numerous disciplines including: visual arts, filmmaking, writing, music, and performing arts, in addition to its substantial museum and arts educational programming.\n\nThe Watts Towers Arts Center is internationally known for its association with, and development of, master artists. Just like Simon Rodia, and in spite of the tremendous, measurable success of our world renowned, master artists, many still find themselves outside the range for inclusion in many of the existing art institutions.\n\nDuring the last weekend of September, DCA?????s Watts Towers Arts Center produces the annual Watts Towers Day of the Drum Festival and the Simon Rodia Watts Towers Jazz Festival. Both events embrace the concept of multiculturalism and draw crowds from all parts of the city and around the world. The Watts Towers Day of the Drum Festival is dedicated to percussion and the traditional role of drumming in human societies. The Simon Rodia Watts Towers Jazz Festival, the oldest festival in Los Angeles, pays tribute to the American music forms of Jazz, Gospel, and Blues ????? and takes it to the Avant Garde and Latin Jazz scene. The performers represent the diverse cultures in Los Angeles and some of the finest talent in drumming and jazz today. The festival brings visitors, including children, together with community service organization, retail and food vendors, artisans, and musicians. Each year, thousands of people from all over the world are attracted to the site to see the Watts Towers, hear the story of their creation, and participate in the programs DCA provides.\n\nThe galleries at the Watts Towers Campus include the Noah Purifoy Gallery, the Charles Mingus Gallery, and the Dr. Joseph and Bootsie Howard Gallery.","address_address":"1727 East 107th Street","address_state":"CA","hours":"Wednesday- Saturday, 10:00AM - 4:00PM; Sunday, 12:00PM - 4:00PM","parking":"Off-street parking, lot available","center_name":"Watts Towers Campus - Noah Purifoy Gallery","art_classes":"yes","phone":"(213) 847-4646","council_district":"15"}},{"type":"Feature","geometry":{"type":"Point","coordinates":[-118.241932,33.938627]},"properties":{"address_city":"Los Angeles","website":"http://www.wattstowers.org","address_zip":"90002","email":"watts.towers1@lacity.org","description":"Since its inception in 1961, the City of Los Angeles Department of Cultural Affairs????? Watts Towers Arts Center, and the later-built Charles Mingus Youth Arts Center, located in the heart of Watts on a campus that includes Simon Rodia?????s Watts Towers, have provided programs designed for cultural enrichment. Classes for both teachers and students in painting, sculpture, photography, music, dance, gardening, tiling, and other multi-media arts are presented in a safe, non-competitive creative atmosphere under the guidance and direction of professional artists. Tours and lectures, as well as permanent and changing exhibitions by outstanding local and international artists, are offered year round.\n\nDCA?????s Watts Towers Arts Campus has served as a beacon of light for arts education and a conduit for social change. It continues to support and present master artists and to nurture aspiring young people. This arts education institution, which is the only tourist destination in Watts, continues to serve not only our local Southern California community, but the world at large, as is evidenced by its large number of international visitors. Through its exhibitions, tours, and other programs, the WTAC has been associated with, and presented, more than 1,000 artists in numerous disciplines including: visual arts, filmmaking, writing, music, and performing arts, in addition to its substantial museum and arts educational programming.\n\nThe Watts Towers Arts Center is internationally known for its association with, and development of, master artists. Just like Simon Rodia, and in spite of the tremendous, measurable success of our world renowned, master artists, many still find themselves outside the range for inclusion in many of the existing art institutions.\n\nDuring the last weekend of September, DCA?????s Watts Towers Arts Center produces the annual Watts Towers Day of the Drum Festival and the Simon Rodia Watts Towers Jazz Festival. Both events embrace the concept of multiculturalism and draw crowds from all parts of the city and around the world. The Watts Towers Day of the Drum Festival is dedicated to percussion and the traditional role of drumming in human societies. The Simon Rodia Watts Towers Jazz Festival, the oldest festival in Los Angeles, pays tribute to the American music forms of Jazz, Gospel, and Blues ????? and takes it to the Avant Garde and Latin Jazz scene. The performers represent the diverse cultures in Los Angeles and some of the finest talent in drumming and jazz today. The festival brings visitors, including children, together with community service organization, retail and food vendors, artisans, and musicians. Each year, thousands of people from all over the world are attracted to the site to see the Watts Towers, hear the story of their creation, and participate in the programs DCA provides.\n\nThe galleries at the Watts Towers Campus include the Noah Purifoy Gallery, the Charles Mingus Gallery, and the Dr. Joseph and Bootsie Howard Gallery.","address_address":"1727 East 107th Street","address_state":"CA","hours":"Wednesday- Saturday, 10:00AM - 4:00PM; Sunday, 12:00PM - 4:00PM","parking":"Off-street parking, lot available","center_name":"Watts Towers Campus - Watts Towers","art_classes":"yes","phone":"(213) 847-4646","council_district":"15"}},{"type":"Feature","geometry":{"type":"Point","coordinates":[-118.241932,33.938627]},"properties":{"address_city":"Los Angeles","website":"http://www.wattstowers.org","address_zip":"90002","email":"watts.towers1@lacity.org","description":"Since its inception in 1961, the City of Los Angeles Department of Cultural Affairs????? Watts Towers Arts Center, and the later-built Charles Mingus Youth Arts Center, located in the heart of Watts on a campus that includes Simon Rodia?????s Watts Towers, have provided programs designed for cultural enrichment. Classes for both teachers and students in painting, sculpture, photography, music, dance, gardening, tiling, and other multi-media arts are presented in a safe, non-competitive creative atmosphere under the guidance and direction of professional artists. Tours and lectures, as well as permanent and changing exhibitions by outstanding local and international artists, are offered year round.\n\nDCA?????s Watts Towers Arts Campus has served as a beacon of light for arts education and a conduit for social change. It continues to support and present master artists and to nurture aspiring young people. This arts education institution, which is the only tourist destination in Watts, continues to serve not only our local Southern California community, but the world at large, as is evidenced by its large number of international visitors. Through its exhibitions, tours, and other programs, the WTAC has been associated with, and presented, more than 1,000 artists in numerous disciplines including: visual arts, filmmaking, writing, music, and performing arts, in addition to its substantial museum and arts educational programming.\n\nThe Watts Towers Arts Center is internationally known for its association with, and development of, master artists. Just like Simon Rodia, and in spite of the tremendous, measurable success of our world renowned, master artists, many still find themselves outside the range for inclusion in many of the existing art institutions.\n\nDuring the last weekend of September, DCA?????s Watts Towers Arts Center produces the annual Watts Towers Day of the Drum Festival and the Simon Rodia Watts Towers Jazz Festival. Both events embrace the concept of multiculturalism and draw crowds from all parts of the city and around the world. The Watts Towers Day of the Drum Festival is dedicated to percussion and the traditional role of drumming in human societies. The Simon Rodia Watts Towers Jazz Festival, the oldest festival in Los Angeles, pays tribute to the American music forms of Jazz, Gospel, and Blues ????? and takes it to the Avant Garde and Latin Jazz scene. The performers represent the diverse cultures in Los Angeles and some of the finest talent in drumming and jazz today. The festival brings visitors, including children, together with community service organization, retail and food vendors, artisans, and musicians. Each year, thousands of people from all over the world are attracted to the site to see the Watts Towers, hear the story of their creation, and participate in the programs DCA provides.\n\nThe galleries at the Watts Towers Campus include the Noah Purifoy Gallery, the Charles Mingus Gallery, and the Dr. Joseph and Bootsie Howard Gallery.","address_address":"1727 East 107th Street","address_state":"CA","hours":"Wednesday- Saturday, 10:00AM - 4:00PM; Sunday, 12:00PM - 4:00PM","parking":"Off-street parking, lot available","center_name":"Watts Towers Campus - Watts Towers Arts Center","art_classes":"yes","phone":"(213) 847-4646","council_district":"15"}},{"type":"Feature","geometry":{"type":"Point","coordinates":[-118.34815,34.033061]},"properties":{"address_city":"Los Angeles","website":"https://wgsac.wordpress.com/","address_zip":"90016","email":"ami.motevalli@lacity.org","description":"Founded in 1977, William Grant Still Arts Center is a facility of the City of Los Angeles Department of Cultural Affairs offering summer camp, creative workshops, music and art classes for adults and youth, an exhibition space, concerts, and a place for community meetings and the neighborhood to come together.\n\nThe Center offers:\n\nArt, movement, and music classes for seniors, adults, teens, and children, including early childhood education;\nProfessionally-produced exhibitions that include the annual Black Doll Show, now in it?????s 35th year, and the African-American Composers Exhibition and Education series that displays archives and teaches music and art through the life and work of a selected composer;\nArt & Jazz Summer Day Camp for ages 3-12;\nJazz-based ensemble instruction;\nPartnerships with teachers at local schools and universities; and\nReadings, film screenings, and concerts throughout the year\nOur namesake, Dr. William Grant Still, first coined the term ?????art music?????, which is very much in line the educational goals of our community arts center. All of the William Grant Still Arts Center?????s programs are free, or are as low-cost as is possible, in order to be accessible to all in our community.","address_address":"2520 South West View Street","address_state":"CA","hours":"Tuesday - Saturday, 12:00PM - 5:00PM , unless for special programming or classes","parking":"Street parking","center_name":"William Grant Still Art Center","art_classes":"yes","phone":"(323) 734-1165","council_district":"10"}},{"type":"Feature","geometry":{"type":"Point","coordinates":[-118.276142,34.063745]},"properties":{"address_city":"Los Angeles","website":"http://www.fridakahlotheater.org/#!la-photo-lab/calu","address_zip":"90057","email":"avytrop@yahoo.com","description":"The William Reagh Los Angeles Photography Center is operated by Grupo de Teatro SINERGIA in partnership with the Department of Cultural Affairs City of Los Angeles, and is the only Community Photography Laboratory in the Los Angeles area.","address_address":"2332 West Fourth Street","address_state":"CA","hours":"Dates and times subject to change. Please call: 213-382-8133","parking":"On site parking","center_name":"William Reagh - LA Photography Center","art_classes":"yes","phone":"(213) 639-1572","council_district":"1"}}], "crs" : { "type": "name", "properties": { "name": "urn:ogc:def:crs:OGC:1.3:CRS84" } } }