{"type": "FeatureCollection", "features": [{"type": "Feature", "properties": {"name": "Beyond Baroque Literary/Arts Center", "place_type": "arts_centre", "source": "openstreetmap", "website": null, "address": null}, "geometry": {"type": "Point", "coordinates": [-118.458888, 33.9913889]}}, {"type": "Feature", "properties": {"name": "Drudis-Biada Art Gallery And Fine Arts Building", "place_type": "arts_centre", "source": "openstreetmap", "website": null, "address": null}, "geometry": {"type": "Point", "coordinates": [-118.4822222, 34.0841667]}}, {"type": "Feature", "properties": {"name": "Mullin Family Studio And Art Gallery", "place_type": "arts_centre", "source": "openstreetmap", "website": null, "address": null}, "geometry": {"type": "Point", "coordinates": [-118.2097222, 34.1297222]}}, {"type": "Feature", "properties": {"name": "Korean Cultural Center", "place_type": "arts_centre", "source": "openstreetmap", "website": null, "address": "5505, Wilshire Boulevard, Los Angeles"}, "geometry": {"type": "Point", "coordinates": [-118.3484706, 34.0626106]}}, {"type": "Feature", "properties": {"name": "Torrance Cultural Arts Center", "place_type": "arts_centre", "source": "openstreetmap", "website": null, "address": "3330, Civic Center Drive"}, "geometry": {"type": "Point", "coordinates": [-118.3442401, 33.8391825]}}, {"type": "Feature", "properties": {"name": "Santa Monica Museum of Art", "place_type": "museum", "source": "openstreetmap", "website": null, "address": null}, "geometry": {"type": "Point", "coordinates": [-118.4844787, 34.0036108]}}, {"type": "Feature", "properties": {"name": "Autry Museum of the American West", "place_type": "museum", "source": "openstreetmap", "website": "https://theautry.org/", "address": "4700, Western Heritage Way, Los Angeles"}, "geometry": {"type": "Point", "coordinates": [-118.2817076, 34.1483813]}}, {"type": "Feature", "properties": {"name": "Martyrs Memorial and Museum of the Holocaust", "place_type": "museum", "source": "openstreetmap", "website": null, "address": null}, "geometry": {"type": "Point", "coordinates": [-118.3697998, 34.0641767]}}, {"type": "Feature", "properties": {"name": "California Heritage Museum", "place_type": "museum", "source": "openstreetmap", "website": "https://californiaheritagemuseum.org/", "address": "2612, Main Street"}, "geometry": {"type": "Point", "coordinates": [-118.4838701, 34.0019857]}}, {"type": "Feature", "properties": {"name": "Pasadena Museum of History", "place_type": "museum", "source": "openstreetmap", "website": "https://pasadenahistory.org/", "address": "470, West Walnut Street, Pasadena"}, "geometry": {"type": "Point", "coordinates": [-118.160952, 34.1493242]}}, {"type": "Feature", "properties": {"name": "Forest Lawn Museum", "place_type": "museum", "source": "openstreetmap", "website": "https://forestlawn.com/museum/", "address": null}, "geometry": {"type": "Point", "coordinates": [-118.246095, 34.1284656]}}, {"type": "Feature", "properties": {"name": "Hollywood Entertainment Museum", "place_type": "museum", "source": "openstreetmap", "website": "https://www.seeing-stars.com/Museums/HollywoodEntertainment.shtml", "address": "7021, Hollywood Boulevard, Hollywood"}, "geometry": {"type": "Point", "coordinates": [-118.3425, 34.1019444]}}, {"type": "Feature", "properties": {"name": "Museum of Latin American Art", "place_type": "museum", "source": "openstreetmap", "website": "https://molaa.org/", "address": null}, "geometry": {"type": "Point", "coordinates": [-118.179678, 33.7745764]}}, {"type": "Feature", "properties": {"name": "Southwest Museum of the American Indian", "place_type": "museum", "source": "openstreetmap", "website": null, "address": null}, "geometry": {"type": "Point", "coordinates": [-118.205806, 34.1004643]}}, {"type": "Feature", "properties": {"name": "Grammy Museum", "place_type": "museum", "source": "openstreetmap", "website": "https://grammymuseum.org/", "address": "800, West Olympic Boulevard"}, "geometry": {"type": "Point", "coordinates": [-118.2646054, 34.0446975]}}, {"type": "Feature", "properties": {"name": "Morono Kiang Gallery", "place_type": "gallery", "source": "openstreetmap", "website": null, "address": null}, "geometry": {"type": "Point", "coordinates": [-118.24766, 34.0505081]}}, {"type": "Feature", "properties": {"name": "NORBERTELLEN GALLERY", "place_type": "gallery", "source": "openstreetmap", "website": null, "address": null}, "geometry": {"type": "Point", "coordinates": [-118.251249, 34.0463914]}}, {"type": "Feature", "properties": {"name": "Continental Gallery", "place_type": "gallery", "source": "openstreetmap", "website": null, "address": null}, "geometry": {"type": "Point", "coordinates": [-118.248239, 34.0486661]}}, {"type": "Feature", "properties": {"name": "Crack Gallery", "place_type": "gallery", "source": "openstreetmap", "website": null, "address": null}, "geometry": {"type": "Point", "coordinates": [-118.2513692, 34.0461069]}}, {"type": "Feature", "properties": {"name": "The Latino Museum", "place_type": "museum", "source": "openstreetmap", "website": null, "address": null}, "geometry": {"type": "Point", "coordinates": [-118.2499101, 34.0469745]}}, {"type": "Feature", "properties": {"name": "Julie Rico Gallery", "place_type": "gallery", "source": "openstreetmap", "website": null, "address": null}, "geometry": {"type": "Point", "coordinates": [-118.2495067, 34.046939]}}, {"type": "Feature", "properties": {"name": "Arty", "place_type": "gallery", "source": "openstreetmap", "website": null, "address": null}, "geometry": {"type": "Point", "coordinates": [-118.2506728, 34.0443411]}}, {"type": "Feature", "properties": {"name": "Rooftop Gallery", "place_type": "gallery", "source": "openstreetmap", "website": null, "address": null}, "geometry": {"type": "Point", "coordinates": [-118.2485025, 34.0453388]}}, {"type": "Feature", "properties": {"name": "The Last Laugh", "place_type": "gallery", "source": "openstreetmap", "website": null, "address": null}, "geometry": {"type": "Point", "coordinates": [-118.2494691, 34.0451574]}}, {"type": "Feature", "properties": {"name": "Fifty/ 24LA Gallery", "place_type": "gallery", "source": "openstreetmap", "website": null, "address": null}, "geometry": {"type": "Point", "coordinates": [-118.2490914, 34.0448374]}}, {"type": "Feature", "properties": {"name": "Compact Space", "place_type": "gallery", "source": "openstreetmap", "website": null, "address": null}, "geometry": {"type": "Point", "coordinates": [-118.248791, 34.0449867]}}, {"type": "Feature", "properties": {"name": "Ground Floor Gallery at Santee Court", "place_type": "gallery", "source": "openstreetmap", "website": null, "address": null}, "geometry": {"type": "Point", "coordinates": [-118.25064, 34.0422696]}}, {"type": "Feature", "properties": {"name": "The Hive", "place_type": "gallery", "source": "openstreetmap", "website": null, "address": null}, "geometry": {"type": "Point", "coordinates": [-118.253128, 34.0440373]}}, {"type": "Feature", "properties": {"name": "G727", "place_type": "gallery", "source": "openstreetmap", "website": null, "address": null}, "geometry": {"type": "Point", "coordinates": [-118.252871, 34.0443076]}}, {"type": "Feature", "properties": {"name": "Infusion Gallery", "place_type": "gallery", "source": "openstreetmap", "website": null, "address": null}, "geometry": {"type": "Point", "coordinates": [-118.252682, 34.0445778]}}, {"type": "Feature", "properties": {"name": "7+FIG Art Space", "place_type": "gallery", "source": "openstreetmap", "website": null, "address": null}, "geometry": {"type": "Point", "coordinates": [-118.260493, 34.04898]}}, {"type": "Feature", "properties": {"name": "FIDM Museum And Galleries", "place_type": "museum", "source": "openstreetmap", "website": "https://fidmmuseum.org/", "address": null}, "geometry": {"type": "Point", "coordinates": [-118.260267, 34.0439582]}}, {"type": "Feature", "properties": {"name": "PYO Gallery", "place_type": "gallery", "source": "openstreetmap", "website": null, "address": null}, "geometry": {"type": "Point", "coordinates": [-118.2632396, 34.0417828]}}, {"type": "Feature", "properties": {"name": "The Landing Party", "place_type": "gallery", "source": "openstreetmap", "website": null, "address": null}, "geometry": {"type": "Point", "coordinates": [-118.254564, 34.0442757]}}, {"type": "Feature", "properties": {"name": "Gallery 1927 at the Fine Arts Building", "place_type": "gallery", "source": "openstreetmap", "website": null, "address": null}, "geometry": {"type": "Point", "coordinates": [-118.2591278, 34.0491046]}}, {"type": "Feature", "properties": {"name": "LA Artcore Center", "place_type": "gallery", "source": "openstreetmap", "website": null, "address": null}, "geometry": {"type": "Point", "coordinates": [-118.241386, 34.0501344]}}, {"type": "Feature", "properties": {"name": "Centinela Adobe", "place_type": "museum", "source": "openstreetmap", "website": "https://centinelaadobe.org/", "address": "7634, Midfield Avenue, Los Angeles"}, "geometry": {"type": "Point", "coordinates": [-118.3722504, 33.9675991]}}, {"type": "Feature", "properties": {"name": "Chinese American Museum", "place_type": "museum", "source": "openstreetmap", "website": "https://camla.org", "address": "425, North Los Angeles Street, Los Angeles"}, "geometry": {"type": "Point", "coordinates": [-118.2392117, 34.0557136]}}, {"type": "Feature", "properties": {"name": "Birthplace of the Internet", "place_type": "museum", "source": "openstreetmap", "website": "https://uclaconnectionlab.org/internet-museum/", "address": null}, "geometry": {"type": "Point", "coordinates": [-118.442621, 34.0687442]}}, {"type": "Feature", "properties": {"name": "Hermosa Beach Historical Society Museum", "place_type": "museum", "source": "openstreetmap", "website": "https://www.hermosabeachhistoricalsociety.org/", "address": "710, Pier Avenue, Hermosa Beach"}, "geometry": {"type": "Point", "coordinates": [-118.394096, 33.8641538]}}, {"type": "Feature", "properties": {"name": "Hollywood Wax Museum", "place_type": "museum", "source": "openstreetmap", "website": "https://www.hollywoodwaxmuseum.com/", "address": "6767, Hollywood Boulevard, Los Angeles"}, "geometry": {"type": "Point", "coordinates": [-118.3381249, 34.10173]}}, {"type": "Feature", "properties": {"name": "Eames House", "place_type": "museum", "source": "openstreetmap", "website": "https://eamesfoundation.org/house/eames-house/", "address": null}, "geometry": {"type": "Point", "coordinates": [-118.519319, 34.0298696]}}, {"type": "Feature", "properties": {"name": "Museum of Death", "place_type": "museum", "source": "openstreetmap", "website": "http://www.museumofdeath.net/", "address": "6363, Selma"}, "geometry": {"type": "Point", "coordinates": [-118.3290098, 34.0998785]}}, {"type": "Feature", "properties": {"name": "Hauser & Wirth", "place_type": "gallery", "source": "openstreetmap", "website": "https://www.hauserwirth.com", "address": "901, East 3rd Street"}, "geometry": {"type": "Point", "coordinates": [-118.2346476, 34.0461117]}}, {"type": "Feature", "properties": {"name": "Experimental Digital Arts", "place_type": "gallery", "source": "openstreetmap", "website": "https://dma.ucla.edu/", "address": "240, Charles E. Young Drive North, Los Angeles"}, "geometry": {"type": "Point", "coordinates": [-118.4408451, 34.0759492]}}, {"type": "Feature", "properties": {"name": "UCLA New Wight Gallery", "place_type": "gallery", "source": "openstreetmap", "website": null, "address": "Los Angeles"}, "geometry": {"type": "Point", "coordinates": [-118.4409571, 34.0755885]}}, {"type": "Feature", "properties": {"name": "Diego Cardoso", "place_type": "gallery", "source": "openstreetmap", "website": "http://www.cardosoart.com/", "address": "738 #4, South Los Angeles Street, Los Angeles"}, "geometry": {"type": "Point", "coordinates": [-118.2511317, 34.042099]}}, {"type": "Feature", "properties": {"name": "Gallery at REDCAT", "place_type": "museum", "source": "openstreetmap", "website": "https://www.redcat.org/gallery/", "address": null}, "geometry": {"type": "Point", "coordinates": [-118.250457, 34.0550448]}}, {"type": "Feature", "properties": {"name": "LA Plaza De Culturas Y Artes", "place_type": "museum", "source": "openstreetmap", "website": "https://lapca.org/", "address": null}, "geometry": {"type": "Point", "coordinates": [-118.239796, 34.0564211]}}, {"type": "Feature", "properties": {"name": "USC Fisher Museum of Art", "place_type": "museum", "source": "openstreetmap", "website": "https://fisher.usc.edu/", "address": null}, "geometry": {"type": "Point", "coordinates": [-118.2873476, 34.0186092]}}, {"type": "Feature", "properties": {"name": "photographers'gallery.com", "place_type": "gallery", "source": "openstreetmap", "website": null, "address": null}, "geometry": {"type": "Point", "coordinates": [-118.3442466, 34.075145]}}, {"type": "Feature", "properties": {"name": "Edgemar Center For The Arts", "place_type": "arts_centre", "source": "openstreetmap", "website": "https://edgemarcenter.org/", "address": "2437, Main Street, Santa Monica"}, "geometry": {"type": "Point", "coordinates": [-118.4848663, 34.0037335]}}, {"type": "Feature", "properties": {"name": "Streamline Moderne gas station", "place_type": "gallery", "source": "openstreetmap", "website": null, "address": null}, "geometry": {"type": "Point", "coordinates": [-118.2421241, 34.1324301]}}, {"type": "Feature", "properties": {"name": "Warner Bros. Transportation Museum", "place_type": "museum", "source": "openstreetmap", "website": null, "address": "4000, Warner Boulevard, Burbank"}, "geometry": {"type": "Point", "coordinates": [-118.340304, 34.1464202]}}, {"type": "Feature", "properties": {"name": "L.A. Connection Comedy Theatre", "place_type": "arts_centre", "source": "openstreetmap", "website": "https://laconnectioncomedy.com/", "address": "3435, West Magnolia Boulevard, Burbank"}, "geometry": {"type": "Point", "coordinates": [-118.344921, 34.1687432]}}, {"type": "Feature", "properties": {"name": "The J. Paul Getty Museum", "place_type": "museum", "source": "openstreetmap", "website": "https://www.getty.edu/visit/center/", "address": null}, "geometry": {"type": "Point", "coordinates": [-118.47401, 34.0770168]}}, {"type": "Feature", "properties": {"name": "Tamal Museum", "place_type": "museum", "source": "openstreetmap", "website": null, "address": null}, "geometry": {"type": "Point", "coordinates": [-118.2630957, 34.0407317]}}, {"type": "Feature", "properties": {"name": "Gallery 478", "place_type": "gallery", "source": "openstreetmap", "website": null, "address": "478, West 7th Street"}, "geometry": {"type": "Point", "coordinates": [-118.2873537, 33.7379938]}}, {"type": "Feature", "properties": {"name": "Art on Scene", "place_type": "gallery", "source": "openstreetmap", "website": "http://artonscene.com", "address": "8521, West Sunset Boulevard, West Hollywood"}, "geometry": {"type": "Point", "coordinates": [-118.3771819, 34.0940906]}}, {"type": "Feature", "properties": {"name": "Schindler House and Studio", "place_type": "museum", "source": "openstreetmap", "website": "https://www.makcenter.org/", "address": "833, North Kings Road, West Hollywood"}, "geometry": {"type": "Point", "coordinates": [-118.3721833, 34.0864294]}}, {"type": "Feature", "properties": {"name": "MAK Center for Art and Architecture", "place_type": "arts_centre", "source": "openstreetmap", "website": null, "address": null}, "geometry": {"type": "Point", "coordinates": [-118.372251, 34.0864868]}}, {"type": "Feature", "properties": {"name": "Dark Arts Emporium", "place_type": "gallery", "source": "openstreetmap", "website": null, "address": null}, "geometry": {"type": "Point", "coordinates": [-118.1867658, 33.7682803]}}, {"type": "Feature", "properties": {"name": "Center for the Arts Eagle Rock", "place_type": "arts_centre", "source": "openstreetmap", "website": "https://www.cfaer.org/", "address": "2225, Colorado Boulevard, Los Angeles"}, "geometry": {"type": "Point", "coordinates": [-118.2149138, 34.1396299]}}, {"type": "Feature", "properties": {"name": "Track 16 Gallery 1", "place_type": "gallery", "source": "openstreetmap", "website": "https://www.track16.com/", "address": "1206, Maple Avenue, Los Angeles"}, "geometry": {"type": "Point", "coordinates": [-118.2562788, 34.0354114]}}, {"type": "Feature", "properties": {"name": "Lowell Ryan Projects", "place_type": "museum", "source": "openstreetmap", "website": "https://www.lowellryanprojects.com/", "address": null}, "geometry": {"type": "Point", "coordinates": [-118.3404523, 34.0400328]}}, {"type": "Feature", "properties": {"name": "Michael", "place_type": "gallery", "source": "openstreetmap", "website": "https://galeriemichael.com/", "address": null}, "geometry": {"type": "Point", "coordinates": [-118.4008021, 34.0674692]}}, {"type": "Feature", "properties": {"name": "Museum of Selfies", "place_type": "museum", "source": "openstreetmap", "website": "https://museumofselfies.com/", "address": "6757, Hollywood Boulevard, Los Angeles"}, "geometry": {"type": "Point", "coordinates": [-118.3378435, 34.1017438]}}, {"type": "Feature", "properties": {"name": "Dion Gallery", "place_type": "gallery", "source": "openstreetmap", "website": null, "address": "1907\u00bd, South Catalina Avenue"}, "geometry": {"type": "Point", "coordinates": [-118.3871209, 33.815883]}}, {"type": "Feature", "properties": {"name": "Roslin Art Gallery", "place_type": "gallery", "source": "openstreetmap", "website": null, "address": "111, West California Avenue, Glendale"}, "geometry": {"type": "Point", "coordinates": [-118.2557193, 34.1500137]}}, {"type": "Feature", "properties": {"name": "Iguana Import Gallery", "place_type": "gallery", "source": "openstreetmap", "website": null, "address": "3440, East Broadway, Long Beach"}, "geometry": {"type": "Point", "coordinates": [-118.1515345, 33.7643043]}}, {"type": "Feature", "properties": {"name": "Corita Art Center", "place_type": "arts_centre", "source": "openstreetmap", "website": null, "address": null}, "geometry": {"type": "Point", "coordinates": [-118.3106983, 34.1062618]}}, {"type": "Feature", "properties": {"name": "Italian American Museum of Los Angeles", "place_type": "museum", "source": "openstreetmap", "website": "https://www.iamla.org/", "address": null}, "geometry": {"type": "Point", "coordinates": [-118.237764, 34.0580596]}}, {"type": "Feature", "properties": {"name": "Am\u00e9rica Tropical Interpretative Center", "place_type": "museum", "source": "openstreetmap", "website": "https://theamericatropical.org/", "address": null}, "geometry": {"type": "Point", "coordinates": [-118.2381617, 34.0576322]}}, {"type": "Feature", "properties": {"name": "La Plaza United Methodist Church, Museum of Social Justice", "place_type": "museum", "source": "openstreetmap", "website": "https://www.museumofsocialjustice.org/", "address": null}, "geometry": {"type": "Point", "coordinates": [-118.2381692, 34.0569975]}}, {"type": "Feature", "properties": {"name": "Tomorrow's Aeronautical Museum", "place_type": "museum", "source": "openstreetmap", "website": null, "address": null}, "geometry": {"type": "Point", "coordinates": [-118.2406751, 33.8888523]}}, {"type": "Feature", "properties": {"name": "UCLA Margo Leavin Graduate Art Studios", "place_type": "arts_centre", "source": "openstreetmap", "website": null, "address": null}, "geometry": {"type": "Point", "coordinates": [-118.381476, 34.0241271]}}, {"type": "Feature", "properties": {"name": "Art in the Park", "place_type": "arts_centre", "source": "openstreetmap", "website": null, "address": null}, "geometry": {"type": "Point", "coordinates": [-118.1863124, 34.1059637]}}, {"type": "Feature", "properties": {"name": "Rock Rose Gallery", "place_type": "gallery", "source": "openstreetmap", "website": null, "address": "4108, N Figueroa Street"}, "geometry": {"type": "Point", "coordinates": [-118.2095091, 34.0930332]}}, {"type": "Feature", "properties": {"name": "ONE Gallery, West Hollywood", "place_type": "gallery", "source": "openstreetmap", "website": "https://www.onearchives.org/", "address": "626, North Robertson Boulevard, West Hollywood"}, "geometry": {"type": "Point", "coordinates": [-118.385331, 34.0816966]}}, {"type": "Feature", "properties": {"name": "Cherry Co", "place_type": "gallery", "source": "openstreetmap", "website": "https://www.cherryco.art", "address": "211, Avenida del Norte"}, "geometry": {"type": "Point", "coordinates": [-118.3877727, 33.8184032]}}, {"type": "Feature", "properties": {"name": "Art House of Tailoring", "place_type": "arts_centre", "source": "openstreetmap", "website": null, "address": null}, "geometry": {"type": "Point", "coordinates": [-118.4067784, 34.142682]}}, {"type": "Feature", "properties": {"name": "Valley Relics Museum", "place_type": "museum", "source": "openstreetmap", "website": "https://valleyrelicsmuseum.org/", "address": "7900, Balboa Boulevard, Lake Balboa"}, "geometry": {"type": "Point", "coordinates": [-118.5000677, 34.2138847]}}, {"type": "Feature", "properties": {"name": "Malibu Gallery", "place_type": "gallery", "source": "openstreetmap", "website": "http://malibugallery.com", "address": "22625, Pacific Coast Highway, Malibu"}, "geometry": {"type": "Point", "coordinates": [-118.667662, 34.0397081]}}, {"type": "Feature", "properties": {"name": "Psychiatry: An Industry of Death Museum", "place_type": "museum", "source": "openstreetmap", "website": "https://www.cchr.org/", "address": "6616, West Sunset Boulevard, Los Angeles"}, "geometry": {"type": "Point", "coordinates": [-118.3339175, 34.0978074]}}, {"type": "Feature", "properties": {"name": "Mr Musichead", "place_type": "gallery", "source": "openstreetmap", "website": "https://mrmusichead.com/", "address": "7420, West Sunset Boulevard, Los Angeles"}, "geometry": {"type": "Point", "coordinates": [-118.3525559, 34.0978329]}}, {"type": "Feature", "properties": {"name": "Bo Bridges Gallery", "place_type": "gallery", "source": "openstreetmap", "website": null, "address": null}, "geometry": {"type": "Point", "coordinates": [-118.4103499, 33.8844003]}}, {"type": "Feature", "properties": {"name": "Junior High", "place_type": "arts_centre", "source": "openstreetmap", "website": "http://juniorhighlosangeles.com", "address": "601,603, South Brand Boulevard, Glendale"}, "geometry": {"type": "Point", "coordinates": [-118.2553068, 34.1392687]}}, {"type": "Feature", "properties": {"name": "Potter's Ensemble", "place_type": "gallery", "source": "openstreetmap", "website": null, "address": "1093, Aviation Boulevard"}, "geometry": {"type": "Point", "coordinates": [-118.387859, 33.8647656]}}, {"type": "Feature", "properties": {"name": "Craft Contemporary", "place_type": "museum", "source": "openstreetmap", "website": "https://www.craftcontemporary.org/", "address": "5814, Wilshire Boulevard, Los Angeles"}, "geometry": {"type": "Point", "coordinates": [-118.355555, 34.0622644]}}, {"type": "Feature", "properties": {"name": "Wonder of Dinosaurs", "place_type": "museum", "source": "openstreetmap", "website": null, "address": null}, "geometry": {"type": "Point", "coordinates": [-118.3549911, 33.8722645]}}, {"type": "Feature", "properties": {"name": "Los Angeles Central Library Getty Gallery", "place_type": "gallery", "source": "openstreetmap", "website": "https://www.lapl.org/branches/central-library", "address": null}, "geometry": {"type": "Point", "coordinates": [-118.2554523, 34.0508201]}}, {"type": "Feature", "properties": {"name": "Hollywood Studio Gallery", "place_type": "gallery", "source": "openstreetmap", "website": null, "address": null}, "geometry": {"type": "Point", "coordinates": [-118.3290507, 34.0897888]}}, {"type": "Feature", "properties": {"name": "Gnomon Gallery", "place_type": "gallery", "source": "openstreetmap", "website": null, "address": null}, "geometry": {"type": "Point", "coordinates": [-118.3297082, 34.0895888]}}, {"type": "Feature", "properties": {"name": "Go For Broke National Education Center", "place_type": "museum", "source": "openstreetmap", "website": "https://goforbroke.org/", "address": "355, East 1st Street, Los Angeles"}, "geometry": {"type": "Point", "coordinates": [-118.2392433, 34.0494498]}}, {"type": "Feature", "properties": {"name": "EDDIE ROQUE STUDIO ART", "place_type": "gallery", "source": "openstreetmap", "website": null, "address": "366, West 8th Street, san pedro"}, "geometry": {"type": "Point", "coordinates": [-118.2850923, 33.7371352]}}, {"type": "Feature", "properties": {"name": "Ketabsara Persian Bookstore", "place_type": "gallery", "source": "openstreetmap", "website": "https://masudvalipour", "address": "1441, Westwood Boulevard, Los Angeles"}, "geometry": {"type": "Point", "coordinates": [-118.4413408, 34.0545215]}}, {"type": "Feature", "properties": {"name": "Ernie Wolfe Gallery", "place_type": "gallery", "source": "openstreetmap", "website": null, "address": null}, "geometry": {"type": "Point", "coordinates": [-118.4480129, 34.0457863]}}, {"type": "Feature", "properties": {"name": "Turkana", "place_type": "gallery", "source": "openstreetmap", "website": null, "address": null}, "geometry": {"type": "Point", "coordinates": [-118.4479667, 34.0457312]}}, {"type": "Feature", "properties": {"name": "Benjamin Creme Museum", "place_type": "gallery", "source": "openstreetmap", "website": null, "address": null}, "geometry": {"type": "Point", "coordinates": [-118.447883, 34.0460729]}}, {"type": "Feature", "properties": {"name": "Randyland", "place_type": "gallery", "source": "openstreetmap", "website": "https://www.facebook.com/RandylandLA/", "address": "1646, Lemoyne Street"}, "geometry": {"type": "Point", "coordinates": [-118.2559503, 34.083559]}}, {"type": "Feature", "properties": {"name": "Sepulveda House Museum", "place_type": "museum", "source": "openstreetmap", "website": null, "address": null}, "geometry": {"type": "Point", "coordinates": [-118.238018, 34.0575628]}}, {"type": "Feature", "properties": {"name": "Social and Public Art Resource Center", "place_type": "arts_centre", "source": "openstreetmap", "website": null, "address": null}, "geometry": {"type": "Point", "coordinates": [-118.4586015, 33.9914868]}}, {"type": "Feature", "properties": {"name": "Art + Practice", "place_type": "gallery", "source": "openstreetmap", "website": "https://artandpractice.org/", "address": null}, "geometry": {"type": "Point", "coordinates": [-118.3317262, 34.0044022]}}, {"type": "Feature", "properties": {"name": "Fort MacArthur Museum", "place_type": "museum", "source": "openstreetmap", "website": "http://ftmac.org/", "address": null}, "geometry": {"type": "Point", "coordinates": [-118.2959581, 33.7119914]}}, {"type": "Feature", "properties": {"name": "Off the Wall Art Designs", "place_type": "gallery", "source": "openstreetmap", "website": null, "address": "319, West 6th Street, San Pedro"}, "geometry": {"type": "Point", "coordinates": [-118.2840161, 33.7386609]}}, {"type": "Feature", "properties": {"name": "The Graff Lab", "place_type": "gallery", "source": "openstreetmap", "website": "https://thegrafflab.com/", "address": "1038, Venice Boulevard, Los Angeles"}, "geometry": {"type": "Point", "coordinates": [-118.279016, 34.0413117]}}, {"type": "Feature", "properties": {"name": "Ten Women Gallery", "place_type": "gallery", "source": "openstreetmap", "website": null, "address": null}, "geometry": {"type": "Point", "coordinates": [-118.482032, 34.0006639]}}, {"type": "Feature", "properties": {"name": "Bruce Lurie Gallery", "place_type": "gallery", "source": "openstreetmap", "website": null, "address": "873, Via de la Paz, Pacific Palisades"}, "geometry": {"type": "Point", "coordinates": [-118.5274664, 34.0468167]}}, {"type": "Feature", "properties": {"name": "KR38SPC GALLERY", "place_type": "gallery", "source": "openstreetmap", "website": null, "address": "5720 1/2, North Figueroa Street"}, "geometry": {"type": "Point", "coordinates": [-118.1921225, 34.109755]}}, {"type": "Feature", "properties": {"name": "Highland Park Ebell Club", "place_type": "museum", "source": "openstreetmap", "website": "http://www.ebell-hp.org", "address": "131, South Avenue 57"}, "geometry": {"type": "Point", "coordinates": [-118.1921925, 34.1088396]}}, {"type": "Feature", "properties": {"name": "Tyler Park Presents", "place_type": "gallery", "source": "openstreetmap", "website": "https://www.tylerparkpresents.com/", "address": "4043, Sunset Boulevard"}, "geometry": {"type": "Point", "coordinates": [-118.2809324, 34.0932006]}}, {"type": "Feature", "properties": {"name": "Brentwood Art Center", "place_type": "arts_centre", "source": "openstreetmap", "website": null, "address": null}, "geometry": {"type": "Point", "coordinates": [-118.4781128, 34.0220344]}}, {"type": "Feature", "properties": {"name": "David Zwirner", "place_type": "gallery", "source": "openstreetmap", "website": "https://davidzwirner.com/", "address": "612, North Western Avenue"}, "geometry": {"type": "Point", "coordinates": [-118.3089072, 34.0821413]}}, {"type": "Feature", "properties": {"name": "Lauren Powell Projects", "place_type": "gallery", "source": "openstreetmap", "website": "https://www.laurenpowellprojects.com/", "address": "5225, Hollywood Boulevard, Thai Town"}, "geometry": {"type": "Point", "coordinates": [-118.3043833, 34.1018908]}}, {"type": "Feature", "properties": {"name": "Sarah Brook Gallery", "place_type": "gallery", "source": "openstreetmap", "website": "https://sarahbrookgallery.com/", "address": "5229, Hollywood Boulevard, Thai Town"}, "geometry": {"type": "Point", "coordinates": [-118.3044936, 34.1018898]}}, {"type": "Feature", "properties": {"name": "B-427 Scorpion", "place_type": "museum", "source": "openstreetmap", "website": null, "address": null}, "geometry": {"type": "Point", "coordinates": [-118.1914297, 33.7533053]}}, {"type": "Feature", "properties": {"name": "The Unicorn Museum", "place_type": "museum", "source": "openstreetmap", "website": null, "address": null}, "geometry": {"type": "Point", "coordinates": [-118.2660432, 34.0406333]}}, {"type": "Feature", "properties": {"name": "Residency Art Gallery", "place_type": "gallery", "source": "openstreetmap", "website": "https://www.residencyart.com/", "address": "1245, District Drive, Inglewood"}, "geometry": {"type": "Point", "coordinates": [-118.3420444, 33.9466025]}}, {"type": "Feature", "properties": {"name": "UCLA Athletic Hall of Fame", "place_type": "museum", "source": "openstreetmap", "website": "https://uclabruins.com/honors/hall-of-fame", "address": null}, "geometry": {"type": "Point", "coordinates": [-118.4452743, 34.0706487]}}, {"type": "Feature", "properties": {"name": "Luz De Jesus", "place_type": "gallery", "source": "openstreetmap", "website": "https://laluzdejesus.com/", "address": "4633, Hollywood Boulevard"}, "geometry": {"type": "Point", "coordinates": [-118.289957, 34.1003514]}}, {"type": "Feature", "properties": {"name": "Winn Slavin Fine Art", "place_type": "gallery", "source": "openstreetmap", "website": null, "address": null}, "geometry": {"type": "Point", "coordinates": [-118.400624, 34.0673092]}}, {"type": "Feature", "properties": {"name": "Whites Art Framing & Restoration", "place_type": "gallery", "source": "openstreetmap", "website": null, "address": null}, "geometry": {"type": "Point", "coordinates": [-118.231102, 34.2064138]}}, {"type": "Feature", "properties": {"name": "SugarMynt Gallery", "place_type": "gallery", "source": "openstreetmap", "website": "https://www.sugarmynt.com/", "address": "810, Meridian Avenue, South Pasadena"}, "geometry": {"type": "Point", "coordinates": [-118.1568937, 34.1162994]}}, {"type": "Feature", "properties": {"name": "The Institute for Art and Olfaction", "place_type": "museum", "source": "openstreetmap", "website": "https://artandolfaction.com/", "address": "932, Chung King Road, Los Angeles"}, "geometry": {"type": "Point", "coordinates": [-118.2385854, 34.0656154]}}, {"type": "Feature", "properties": {"name": "Element Art Center", "place_type": "arts_centre", "source": "openstreetmap", "website": "https://www.elementartcenter.com/", "address": "835, North Broadway, Los Angeles"}, "geometry": {"type": "Point", "coordinates": [-118.2380033, 34.0633275]}}, {"type": "Feature", "properties": {"name": "Veridian Art - Art school", "place_type": "arts_centre", "source": "openstreetmap", "website": null, "address": null}, "geometry": {"type": "Point", "coordinates": [-118.5876208, 34.1667312]}}, {"type": "Feature", "properties": {"name": "N\u00fcart Gallery", "place_type": "gallery", "source": "openstreetmap", "website": null, "address": "2525, Michigan Avenue, Santa Monica"}, "geometry": {"type": "Point", "coordinates": [-118.4677141, 34.0282776]}}, {"type": "Feature", "properties": {"name": "Band of Vices", "place_type": "gallery", "source": "openstreetmap", "website": "https://www.bandofvices.com/about", "address": "1700, South Santa Fe Avenue, Los Angeles"}, "geometry": {"type": "Point", "coordinates": [-118.2296583, 34.0242475]}}, {"type": "Feature", "properties": {"name": "Still Life Studio", "place_type": "arts_centre", "source": "openstreetmap", "website": "https://still-life-studio.com/", "address": "588, Mateo Street"}, "geometry": {"type": "Point", "coordinates": [-118.2326239, 34.0387887]}}, {"type": "Feature", "properties": {"name": "Secret Forest Los Angeles", "place_type": "gallery", "source": "openstreetmap", "website": null, "address": "3412, West Magnolia Boulevard, Burbank"}, "geometry": {"type": "Point", "coordinates": [-118.3444199, 34.1685714]}}, {"type": "Feature", "properties": {"name": "Guinness World Records Museum", "place_type": "museum", "source": "openstreetmap", "website": "https://www.guinnessmuseumhollywood.com/", "address": "6764, Hollywood Boulevard, Los Angeles"}, "geometry": {"type": "Point", "coordinates": [-118.3380488, 34.1013769]}}, {"type": "Feature", "properties": {"name": "Ripley's Believe It or Not! Odditoriums", "place_type": "museum", "source": "openstreetmap", "website": "https://www.ripleys.com/hollywood/", "address": "6780, Hollywood Boulevard, Los Angeles"}, "geometry": {"type": "Point", "coordinates": [-118.3384968, 34.1013711]}}, {"type": "Feature", "properties": {"name": "Alexandra Manukyan Art Studio", "place_type": "gallery", "source": "openstreetmap", "website": "https://alexandramanukyan.com/", "address": null}, "geometry": {"type": "Point", "coordinates": [-118.2266099, 34.2032913]}}, {"type": "Feature", "properties": {"name": "RockWalk", "place_type": "museum", "source": "openstreetmap", "website": null, "address": null}, "geometry": {"type": "Point", "coordinates": [-118.3515079, 34.0982128]}}, {"type": "Feature", "properties": {"name": "Karma Gallery", "place_type": "gallery", "source": "openstreetmap", "website": null, "address": "7351, Santa Monica Boulevard, West Hollywood"}, "geometry": {"type": "Point", "coordinates": [-118.3502917, 34.0910773]}}, {"type": "Feature", "properties": {"name": "K&K Gallery", "place_type": "gallery", "source": "openstreetmap", "website": null, "address": "8638, Washington Boulevard"}, "geometry": {"type": "Point", "coordinates": [-118.3821743, 34.0300481]}}, {"type": "Feature", "properties": {"name": "Dataland", "place_type": "museum", "source": "openstreetmap", "website": null, "address": null}, "geometry": {"type": "Point", "coordinates": [-118.2488329, 34.0546008]}}, {"type": "Feature", "properties": {"name": "1301PE", "place_type": "gallery", "source": "openstreetmap", "website": "https://1301pe.com", "address": "6150, Wilshire Boulevard, Los Angeles"}, "geometry": {"type": "Point", "coordinates": [-118.3682489, 34.0634284]}}, {"type": "Feature", "properties": {"name": "Subliminal Projects", "place_type": "gallery", "source": "openstreetmap", "website": "https://subliminalprojects.com/", "address": "1331, West Sunset Boulevard, Los Angeles"}, "geometry": {"type": "Point", "coordinates": [-118.2505586, 34.07226]}}, {"type": "Feature", "properties": {"name": "Lux Humans Gallery", "place_type": "gallery", "source": "openstreetmap", "website": "https://www.theluxhumans.com/", "address": "406, East 2nd Street, Los Angeles"}, "geometry": {"type": "Point", "coordinates": [-118.2390338, 34.0470805]}}, {"type": "Feature", "properties": {"name": "The Los Angeles Museum of Love", "place_type": "museum", "source": "openstreetmap", "website": "https://www.losangelesmuseumoflove.com/", "address": "4320, Melrose Avenue, Los Angeles"}, "geometry": {"type": "Point", "coordinates": [-118.2948959, 34.0834461]}}, {"type": "Feature", "properties": {"name": "The Activist Kitchen Creative Space", "place_type": "arts_centre", "source": "openstreetmap", "website": "https://theactivistkitchen.com/", "address": "669, North Heliotrope Drive, Los Angeles"}, "geometry": {"type": "Point", "coordinates": [-118.295474, 34.0832921]}}, {"type": "Feature", "properties": {"name": "The Getty Villa", "place_type": "museum", "source": "openstreetmap", "website": "https://www.getty.edu/visit/villa/", "address": "17985, Pacific Coast Highway, Pacific Palisades"}, "geometry": {"type": "Point", "coordinates": [-118.5640877, 34.0449798]}}, {"type": "Feature", "properties": {"name": "LA Live Steamers", "place_type": "museum", "source": "openstreetmap", "website": "https://lals.org/", "address": "5202, Zoo Drive, Los Angeles"}, "geometry": {"type": "Point", "coordinates": [-118.3020299, 34.1548971]}}, {"type": "Feature", "properties": {"name": "Bolton Hall", "place_type": "museum", "source": "openstreetmap", "website": "http://www.littlelandershistoricalsociety.org/", "address": "10110, Commerce Avenue, Tujunga"}, "geometry": {"type": "Point", "coordinates": [-118.2882243, 34.2526144]}}, {"type": "Feature", "properties": {"name": "Los Encinos State Historic Park", "place_type": "museum", "source": "openstreetmap", "website": null, "address": null}, "geometry": {"type": "Point", "coordinates": [-118.4990819, 34.1598323]}}, {"type": "Feature", "properties": {"name": "Kidspace Children's Museum", "place_type": "museum", "source": "openstreetmap", "website": "https://kidspacemuseum.org/", "address": "480, North Arroyo Boulevard, Pasadena"}, "geometry": {"type": "Point", "coordinates": [-118.1638902, 34.1557121]}}, {"type": "Feature", "properties": {"name": "Norton Simon Museum of Art", "place_type": "museum", "source": "openstreetmap", "website": null, "address": null}, "geometry": {"type": "Point", "coordinates": [-118.159274, 34.1466859]}}, {"type": "Feature", "properties": {"name": "Grand Central Airport Terminal", "place_type": "museum", "source": "openstreetmap", "website": null, "address": null}, "geometry": {"type": "Point", "coordinates": [-118.2866876, 34.1629864]}}, {"type": "Feature", "properties": {"name": "Los Angeles Museum of the Holocaust", "place_type": "museum", "source": "openstreetmap", "website": null, "address": null}, "geometry": {"type": "Point", "coordinates": [-118.3557718, 34.0747293]}}, {"type": "Feature", "properties": {"name": "Travel Town Museum", "place_type": "museum", "source": "openstreetmap", "website": "https://www.traveltown.org/", "address": "5200, Zoo Drive, Los Angeles"}, "geometry": {"type": "Point", "coordinates": [-118.3076242, 34.1546797]}}, {"type": "Feature", "properties": {"name": "Museum of Contemporary Art", "place_type": "museum", "source": "openstreetmap", "website": "https://www.moca.org/", "address": "250, South Grand Avenue, Los Angeles"}, "geometry": {"type": "Point", "coordinates": [-118.2505295, 34.0532901]}}, {"type": "Feature", "properties": {"name": "Institute of Contemporary Art, Los Angeles", "place_type": "museum", "source": "openstreetmap", "website": "https://www.theicala.org/en", "address": "1717, East 7th Street, Los Angeles"}, "geometry": {"type": "Point", "coordinates": [-118.2356539, 34.035111]}}, {"type": "Feature", "properties": {"name": "Heritage Square", "place_type": "museum", "source": "openstreetmap", "website": "https://heritagesquare.org/", "address": null}, "geometry": {"type": "Point", "coordinates": [-118.208567, 34.087946]}}, {"type": "Feature", "properties": {"name": "Ford House", "place_type": "museum", "source": "openstreetmap", "website": null, "address": null}, "geometry": {"type": "Point", "coordinates": [-118.2087291, 34.0880168]}}, {"type": "Feature", "properties": {"name": "Hale House", "place_type": "museum", "source": "openstreetmap", "website": null, "address": null}, "geometry": {"type": "Point", "coordinates": [-118.2079465, 34.0882311]}}, {"type": "Feature", "properties": {"name": "Perry Mansion", "place_type": "museum", "source": "openstreetmap", "website": null, "address": null}, "geometry": {"type": "Point", "coordinates": [-118.2077866, 34.0884069]}}, {"type": "Feature", "properties": {"name": "Valley Knudsen Garden Residence", "place_type": "museum", "source": "openstreetmap", "website": null, "address": null}, "geometry": {"type": "Point", "coordinates": [-118.2080785, 34.0880808]}}, {"type": "Feature", "properties": {"name": "Octagon House", "place_type": "museum", "source": "openstreetmap", "website": null, "address": null}, "geometry": {"type": "Point", "coordinates": [-118.2085515, 34.0881563]}}, {"type": "Feature", "properties": {"name": "Pacific Island Ethnic Art Museum", "place_type": "museum", "source": "openstreetmap", "website": null, "address": "695, Alamitos Avenue, Long Beach"}, "geometry": {"type": "Point", "coordinates": [-118.1804467, 33.7751642]}}, {"type": "Feature", "properties": {"name": "Western Museum of Flight", "place_type": "museum", "source": "openstreetmap", "website": null, "address": "Airport Drive, Torrance"}, "geometry": {"type": "Point", "coordinates": [-118.3424095, 33.8014633]}}, {"type": "Feature", "properties": {"name": "Santa Susana Depot", "place_type": "museum", "source": "openstreetmap", "website": "http://www.santasusannadepot.org/", "address": "6503, Katherine Road, Simi Valley"}, "geometry": {"type": "Point", "coordinates": [-118.6612099, 34.2607432]}}, {"type": "Feature", "properties": {"name": "Center for Land Use Interpretation", "place_type": "museum", "source": "openstreetmap", "website": "https://clui.org/", "address": "9331, Venice Boulevard, Culver City"}, "geometry": {"type": "Point", "coordinates": [-118.3948726, 34.0259809]}}, {"type": "Feature", "properties": {"name": "Museum of Jurassic Technology", "place_type": "museum", "source": "openstreetmap", "website": "http://mjt.org", "address": "9341, Venice Boulevard, Culver City"}, "geometry": {"type": "Point", "coordinates": [-118.3950753, 34.025862]}}, {"type": "Feature", "properties": {"name": "JPL Building 186 (Theodore von K\u00e1rm\u00e1n Museum and Auditorium)", "place_type": "museum", "source": "openstreetmap", "website": null, "address": null}, "geometry": {"type": "Point", "coordinates": [-118.1750156, 34.1988649]}}, {"type": "Feature", "properties": {"name": "Los Angeles County Museum of Art", "place_type": "museum", "source": "openstreetmap", "website": "https://www.lacma.org", "address": "5905, Wilshire Boulevard, Los Angeles"}, "geometry": {"type": "Point", "coordinates": [-118.3588316, 34.0636978]}}, {"type": "Feature", "properties": {"name": "Mister Brainwash Art Museum", "place_type": "museum", "source": "openstreetmap", "website": "https://mrbrainwashartmuseum.com/", "address": null}, "geometry": {"type": "Point", "coordinates": [-118.4033864, 34.0709054]}}, {"type": "Feature", "properties": {"name": "Discovery Cube Science Center", "place_type": "museum", "source": "openstreetmap", "website": "https://www.discoverycube.org/la/", "address": null}, "geometry": {"type": "Point", "coordinates": [-118.3931209, 34.2729494]}}, {"type": "Feature", "properties": {"name": "Leonis Adobe", "place_type": "museum", "source": "openstreetmap", "website": null, "address": null}, "geometry": {"type": "Point", "coordinates": [-118.6403587, 34.1577329]}}, {"type": "Feature", "properties": {"name": "The Gamble House", "place_type": "museum", "source": "openstreetmap", "website": "https://gamblehouse.org/", "address": "4, Westmoreland Place, Pasadena"}, "geometry": {"type": "Point", "coordinates": [-118.1609189, 34.1516251]}}, {"type": "Feature", "properties": {"name": "Museum of Tolerance", "place_type": "museum", "source": "openstreetmap", "website": "https://www.museumoftolerance.com/", "address": "9760, West Pico Boulevard"}, "geometry": {"type": "Point", "coordinates": [-118.401718, 34.0537224]}}, {"type": "Feature", "properties": {"name": "Point Vicente Interpretive Center", "place_type": "museum", "source": "openstreetmap", "website": "https://www.rpvca.gov/Facilities/Facility/Details/Point-Vicente-Interpretive-Center-13", "address": "31501;31503, Palos Verdes Drive West, Rancho Palos Verdes"}, "geometry": {"type": "Point", "coordinates": [-118.4114467, 33.7447514]}}, {"type": "Feature", "properties": {"name": "Cabrillo Beach Bath House", "place_type": "museum", "source": "openstreetmap", "website": null, "address": "3800, Stephen M. White Drive"}, "geometry": {"type": "Point", "coordinates": [-118.2838067, 33.7097695]}}, {"type": "Feature", "properties": {"name": "SKETCH Foundation Gallery Air and Space Exhibits", "place_type": "museum", "source": "openstreetmap", "website": null, "address": null}, "geometry": {"type": "Point", "coordinates": [-118.2840111, 34.0166212]}}, {"type": "Feature", "properties": {"name": "California African American Museum", "place_type": "museum", "source": "openstreetmap", "website": null, "address": "600, State Drive, Los Angeles"}, "geometry": {"type": "Point", "coordinates": [-118.2836227, 34.0159444]}}, {"type": "Feature", "properties": {"name": "Natural History Museum of Los Angeles County", "place_type": "museum", "source": "openstreetmap", "website": "https://nhm.org/", "address": "900, Exposition Boulevard, Los Angeles"}, "geometry": {"type": "Point", "coordinates": [-118.2888227, 34.0170844]}}, {"type": "Feature", "properties": {"name": "California Science Center", "place_type": "museum", "source": "openstreetmap", "website": "https://californiasciencecenter.org/", "address": "700, Exposition Park Drive, Los Angeles"}, "geometry": {"type": "Point", "coordinates": [-118.2864729, 34.0159714]}}, {"type": "Feature", "properties": {"name": "Banning Residence Museum", "place_type": "museum", "source": "openstreetmap", "website": "https://www.thebanningmuseum.org/", "address": "401, East M Street, Wilmington"}, "geometry": {"type": "Point", "coordinates": [-118.2588223, 33.7899977]}}, {"type": "Feature", "properties": {"name": "Torrance Historical Society Museum", "place_type": "museum", "source": "openstreetmap", "website": "https://torrancehistoricalsociety.org/", "address": "1345, Post Avenue, Torrance"}, "geometry": {"type": "Point", "coordinates": [-118.3181769, 33.8352526]}}, {"type": "Feature", "properties": {"name": "Main Building", "place_type": "museum", "source": "openstreetmap", "website": null, "address": null}, "geometry": {"type": "Point", "coordinates": [-118.4477671, 34.0146842]}}, {"type": "Feature", "properties": {"name": "Neutra Studio and Residences (VDL Research House)", "place_type": "museum", "source": "openstreetmap", "website": null, "address": "2300, Silver Lake Boulevard"}, "geometry": {"type": "Point", "coordinates": [-118.2603974, 34.0984408]}}, {"type": "Feature", "properties": {"name": "Skirball Cultural Center", "place_type": "museum", "source": "openstreetmap", "website": "https://www.skirball.org/", "address": "2701, North Sepulveda Boulevard, Los Angeles"}, "geometry": {"type": "Point", "coordinates": [-118.4792614, 34.1245456]}}, {"type": "Feature", "properties": {"name": "Los Angeles Municipal Art Gallery", "place_type": "museum", "source": "openstreetmap", "website": "https://www.lamag.org/", "address": null}, "geometry": {"type": "Point", "coordinates": [-118.2936452, 34.1004021]}}, {"type": "Feature", "properties": {"name": "Griffith Observatory", "place_type": "museum", "source": "openstreetmap", "website": "https://griffithobservatory.org/", "address": "2800, East Observatory Road, Los Angeles"}, "geometry": {"type": "Point", "coordinates": [-118.3003722, 34.1182134]}}, {"type": "Feature", "properties": {"name": "Children's Discovery Center", "place_type": "museum", "source": "openstreetmap", "website": null, "address": null}, "geometry": {"type": "Point", "coordinates": [-118.2841734, 34.1491552]}}, {"type": "Feature", "properties": {"name": "Walt Disney\u2019s Carolwood Barn", "place_type": "museum", "source": "openstreetmap", "website": null, "address": "5202, Zoo Drive, Los Angeles"}, "geometry": {"type": "Point", "coordinates": [-118.3016407, 34.1551702]}}, {"type": "Feature", "properties": {"name": "Wende Museum of the Cold War", "place_type": "museum", "source": "openstreetmap", "website": null, "address": "10808, Culver Boulevard"}, "geometry": {"type": "Point", "coordinates": [-118.4041962, 34.0113054]}}, {"type": "Feature", "properties": {"name": "Lighthouse Immersive (Los Angeles)", "place_type": "museum", "source": "openstreetmap", "website": "https://www.amoeba.com/", "address": "6200, Sunset Boulevard, Los Angeles"}, "geometry": {"type": "Point", "coordinates": [-118.3291584, 34.0975525]}}, {"type": "Feature", "properties": {"name": "Los Angeles Fire Department Museum and Memorial", "place_type": "museum", "source": "openstreetmap", "website": null, "address": null}, "geometry": {"type": "Point", "coordinates": [-118.3300585, 34.0959378]}}, {"type": "Feature", "properties": {"name": "The Hollywood Museum", "place_type": "museum", "source": "openstreetmap", "website": "https://thehollywoodmuseum.com/", "address": "1660, Highland Avenue, Los Angeles"}, "geometry": {"type": "Point", "coordinates": [-118.3383269, 34.101077]}}, {"type": "Feature", "properties": {"name": "Madame Tussaud's", "place_type": "museum", "source": "openstreetmap", "website": "https://www.madametussauds.com/hollywood/", "address": "6933, Hollywood Boulevard, Hollywood"}, "geometry": {"type": "Point", "coordinates": [-118.3414286, 34.1019411]}}, {"type": "Feature", "properties": {"name": "Automobile Driving Museum", "place_type": "museum", "source": "openstreetmap", "website": null, "address": "610, Lairport Street, El Segundo"}, "geometry": {"type": "Point", "coordinates": [-118.39223, 33.9247326]}}, {"type": "Feature", "properties": {"name": "Kuruvungna Springs Cultural Center and Museum", "place_type": "museum", "source": "openstreetmap", "website": null, "address": null}, "geometry": {"type": "Point", "coordinates": [-118.4581835, 34.0450808]}}, {"type": "Feature", "properties": {"name": "Grier-Musser Museum", "place_type": "museum", "source": "openstreetmap", "website": null, "address": "403, South Bonnie Brae Street, Los Angeles"}, "geometry": {"type": "Point", "coordinates": [-118.2710895, 34.0610338]}}, {"type": "Feature", "properties": {"name": "Broad Contemporary Art Museum", "place_type": "museum", "source": "openstreetmap", "website": null, "address": null}, "geometry": {"type": "Point", "coordinates": [-118.359902, 34.0632021]}}, {"type": "Feature", "properties": {"name": "Hollywood Heritage Museum", "place_type": "museum", "source": "openstreetmap", "website": "https://www.hollywoodheritage.org/", "address": null}, "geometry": {"type": "Point", "coordinates": [-118.3361185, 34.1085321]}}, {"type": "Feature", "properties": {"name": "The Velaslavasay Panorama", "place_type": "museum", "source": "openstreetmap", "website": null, "address": null}, "geometry": {"type": "Point", "coordinates": [-118.2846861, 34.034201]}}, {"type": "Feature", "properties": {"name": "Edmund D. Edelman Hollywood Bowl Museum", "place_type": "museum", "source": "openstreetmap", "website": "https://www.hollywoodbowl.com/visit/when-youre-here/hollywood-bowl-museum", "address": "2301, North Highland Avenue"}, "geometry": {"type": "Point", "coordinates": [-118.3372004, 34.1117032]}}, {"type": "Feature", "properties": {"name": "The Broad Museum", "place_type": "museum", "source": "openstreetmap", "website": "https://thebroad.org/", "address": "221, South Grand Avenue, Los Angeles"}, "geometry": {"type": "Point", "coordinates": [-118.2505946, 34.0544575]}}, {"type": "Feature", "properties": {"name": "The Geffen Contemporary", "place_type": "museum", "source": "openstreetmap", "website": "https://www.moca.org/visit/geffen-contemporary", "address": "152, Central Avenue, Los Angeles"}, "geometry": {"type": "Point", "coordinates": [-118.2385695, 34.0504241]}}, {"type": "Feature", "properties": {"name": "Union Center for the Arts", "place_type": "museum", "source": "openstreetmap", "website": null, "address": "120, Judge John Aiso St."}, "geometry": {"type": "Point", "coordinates": [-118.2400218, 34.0506792]}}, {"type": "Feature", "properties": {"name": "African American Firefighter Museum", "place_type": "museum", "source": "openstreetmap", "website": "https://www.aaffmuseum.org/", "address": "1401, South Central Avenue"}, "geometry": {"type": "Point", "coordinates": [-118.2472636, 34.0284646]}}, {"type": "Feature", "properties": {"name": "Los Angeles Police Museum", "place_type": "museum", "source": "openstreetmap", "website": null, "address": "6045, York Boulevard, Los Angeles"}, "geometry": {"type": "Point", "coordinates": [-118.1876645, 34.1181063]}}, {"type": "Feature", "properties": {"name": "Lummis Home", "place_type": "museum", "source": "openstreetmap", "website": null, "address": null}, "geometry": {"type": "Point", "coordinates": [-118.2069066, 34.0931734]}}, {"type": "Feature", "properties": {"name": "MOCA Pacific Design Center", "place_type": "museum", "source": "openstreetmap", "website": "https://www.moca.org/", "address": null}, "geometry": {"type": "Point", "coordinates": [-118.3834059, 34.0832086]}}, {"type": "Feature", "properties": {"name": "Virginia Watson Chatsworth Museum", "place_type": "museum", "source": "openstreetmap", "website": null, "address": null}, "geometry": {"type": "Point", "coordinates": [-118.6150603, 34.259803]}}, {"type": "Feature", "properties": {"name": "Nethercutt Museum", "place_type": "museum", "source": "openstreetmap", "website": null, "address": "15151, Bledsoe Street, Sylmar"}, "geometry": {"type": "Point", "coordinates": [-118.4640143, 34.3073498]}}, {"type": "Feature", "properties": {"name": "West Valley Museum", "place_type": "museum", "source": "openstreetmap", "website": null, "address": null}, "geometry": {"type": "Point", "coordinates": [-118.601259, 34.2025085]}}, {"type": "Feature", "properties": {"name": "Museum of the San Fernando Valley", "place_type": "museum", "source": "openstreetmap", "website": null, "address": null}, "geometry": {"type": "Point", "coordinates": [-118.5452779, 34.2348664]}}, {"type": "Feature", "properties": {"name": "Casa de L\u00f3pez", "place_type": "museum", "source": "openstreetmap", "website": null, "address": "1100, Pico Street, San Fernando"}, "geometry": {"type": "Point", "coordinates": [-118.4433896, 34.2819831]}}, {"type": "Feature", "properties": {"name": "Long Beach Museum of Art", "place_type": "museum", "source": "openstreetmap", "website": "https://www.lbma.org/", "address": "2300, East Ocean Boulevard, Long Beach"}, "geometry": {"type": "Point", "coordinates": [-118.1647817, 33.7634748]}}, {"type": "Feature", "properties": {"name": "International Printing Museum", "place_type": "museum", "source": "openstreetmap", "website": "https://www.printmuseum.org/", "address": "315, West Torrance Boulevard, Carson"}, "geometry": {"type": "Point", "coordinates": [-118.2838691, 33.8425597]}}, {"type": "Feature", "properties": {"name": "Manhattan Beach Historical Society", "place_type": "museum", "source": "openstreetmap", "website": "https://manhattanbeachhistorical.org/", "address": "1601, Manhattan Beach Boulevard, Manhattan Beach"}, "geometry": {"type": "Point", "coordinates": [-118.3848111, 33.8878217]}}, {"type": "Feature", "properties": {"name": "Morrell House", "place_type": "museum", "source": "openstreetmap", "website": null, "address": null}, "geometry": {"type": "Point", "coordinates": [-118.3782621, 33.8566008]}}, {"type": "Feature", "properties": {"name": "Redondo Beach Historical Museum", "place_type": "museum", "source": "openstreetmap", "website": null, "address": "302, Flagler Lane, Redondo Beach"}, "geometry": {"type": "Point", "coordinates": [-118.3780618, 33.8568926]}}, {"type": "Feature", "properties": {"name": "Lomita Railroad Museum", "place_type": "museum", "source": "openstreetmap", "website": "https://www.lomita-rr.org/", "address": "2137, 250th Street"}, "geometry": {"type": "Point", "coordinates": [-118.3187316, 33.7984212]}}, {"type": "Feature", "properties": {"name": "Torrance Art Museum", "place_type": "museum", "source": "openstreetmap", "website": "https://www.torranceartmuseum.com", "address": "3320, Civic Center Drive"}, "geometry": {"type": "Point", "coordinates": [-118.3431785, 33.8401085]}}, {"type": "Feature", "properties": {"name": "George F. Canyon Nature Center", "place_type": "museum", "source": "openstreetmap", "website": null, "address": null}, "geometry": {"type": "Point", "coordinates": [-118.3269415, 33.7722337]}}, {"type": "Feature", "properties": {"name": "South Gate Museum & Art Gallery", "place_type": "museum", "source": "openstreetmap", "website": null, "address": "8680, California Avenue, South Gate"}, "geometry": {"type": "Point", "coordinates": [-118.2055922, 33.9550062]}}, {"type": "Feature", "properties": {"name": "Dr. Glenn T. Seaborg Family Home", "place_type": "museum", "source": "openstreetmap", "website": null, "address": null}, "geometry": {"type": "Point", "coordinates": [-118.2053782, 33.9551046]}}, {"type": "Feature", "properties": {"name": "South Pasadena Historic Museum", "place_type": "museum", "source": "openstreetmap", "website": "https://sppreservation.org/", "address": "913, Meridian Avenue, South Pasadena"}, "geometry": {"type": "Point", "coordinates": [-118.1575044, 34.1151761]}}, {"type": "Feature", "properties": {"name": "Martial Arts History Museum", "place_type": "museum", "source": "openstreetmap", "website": "https://martialartsmuseum.com/", "address": null}, "geometry": {"type": "Point", "coordinates": [-118.3335606, 34.1726045]}}, {"type": "Feature", "properties": {"name": "Museum of Neon Art", "place_type": "museum", "source": "openstreetmap", "website": "https://www.neonmona.org", "address": null}, "geometry": {"type": "Point", "coordinates": [-118.2545819, 34.1437557]}}, {"type": "Feature", "properties": {"name": "Plaza Fire House", "place_type": "museum", "source": "openstreetmap", "website": null, "address": "501, North Los Angeles Street, Los Angeles"}, "geometry": {"type": "Point", "coordinates": [-118.2388706, 34.0559729]}}, {"type": "Feature", "properties": {"name": "Avila Adobe", "place_type": "museum", "source": "openstreetmap", "website": null, "address": "10, Olvera Street, Los Angeles"}, "geometry": {"type": "Point", "coordinates": [-118.2378127, 34.0572276]}}, {"type": "Feature", "properties": {"name": "Academy Museum of Motion Pictures", "place_type": "museum", "source": "openstreetmap", "website": "https://www.academymuseum.org/", "address": "6067, Wilshire Boulevard, Los Angeles"}, "geometry": {"type": "Point", "coordinates": [-118.3608216, 34.0636022]}}, {"type": "Feature", "properties": {"name": "La Brea Tar Pits and Museum", "place_type": "museum", "source": "openstreetmap", "website": "https://tarpits.org/", "address": null}, "geometry": {"type": "Point", "coordinates": [-118.356777, 34.0636986]}}, {"type": "Feature", "properties": {"name": "Petersen Automotive Museum", "place_type": "museum", "source": "openstreetmap", "website": "https://www.petersen.org/", "address": "6060, Wilshire Boulevard, Los Angeles"}, "geometry": {"type": "Point", "coordinates": [-118.3611893, 34.0623507]}}, {"type": "Feature", "properties": {"name": "Museum of Flying", "place_type": "museum", "source": "openstreetmap", "website": "https://www.museumofflying.org/", "address": "3100, Airport Avenue"}, "geometry": {"type": "Point", "coordinates": [-118.4476128, 34.0147392]}}, {"type": "Feature", "properties": {"name": "Art in the Park at Hermon Park", "place_type": "cultural_center", "source": "data.lacity.org", "website": "http://www.artinthepark.us/", "address": "5568 Via Marisol"}, "geometry": {"type": "Point", "coordinates": [-118.18774, 34.104033]}}, {"type": "Feature", "properties": {"name": "Banning's Landing Community Arts Center", "place_type": "cultural_center", "source": "data.lacity.org", "website": "https://www.portoflosangeles.org/facilities/bannings.asp", "address": "100 E. Water Street"}, "geometry": {"type": "Point", "coordinates": [-118.257031, 33.766449]}}, {"type": "Feature", "properties": {"name": "Barnsdall Art Center", "place_type": "cultural_center", "source": "data.lacity.org", "website": "http://www.barnsdallonline.com", "address": "4814 Hollywood Boulevard"}, "geometry": {"type": "Point", "coordinates": [-118.294958, 34.101761]}}, {"type": "Feature", "properties": {"name": "Barnsdall Gallery Theatre", "place_type": "cultural_center", "source": "data.lacity.org", "website": "http://barnsdall.org/barnsdall-gallery-theater/", "address": "4814 Hollywood Boulevard"}, "geometry": {"type": "Point", "coordinates": [-118.294958, 34.101761]}}, {"type": "Feature", "properties": {"name": "Barnsdall Junior Arts Center", "place_type": "cultural_center", "source": "data.lacity.org", "website": "http://www.barnsdallonline.com", "address": "4814 Hollywood Boulevard"}, "geometry": {"type": "Point", "coordinates": [-118.294958, 34.101761]}}, {"type": "Feature", "properties": {"name": "Barnsdall Junior Arts Center Gallery", "place_type": "cultural_center", "source": "data.lacity.org", "website": "http://www.barnsdallonline.com", "address": "4814 Hollywood Boulevard"}, "geometry": {"type": "Point", "coordinates": [-118.294958, 34.101761]}}, {"type": "Feature", "properties": {"name": "Bridge Gallery at City Hall", "place_type": "cultural_center", "source": "data.lacity.org", "website": "http://culturela.org/cultural-centers/bridge-gallery-city-hall/", "address": "200 North Spring Street"}, "geometry": {"type": "Point", "coordinates": [-118.243388, 34.054094]}}, {"type": "Feature", "properties": {"name": "Canoga Park Youth Arts Center", "place_type": "cultural_center", "source": "data.lacity.org", "website": "http://culturela.org/cultural-centers/canoga-park-youth-arts-center/", "address": "7222 Remmet Avenue"}, "geometry": {"type": "Point", "coordinates": [-118.600273, 34.201701]}}, {"type": "Feature", "properties": {"name": "Encino Arts and Cultural Center", "place_type": "cultural_center", "source": "data.lacity.org", "website": null, "address": "16953 Ventura Boulevard"}, "geometry": {"type": "Point", "coordinates": [-118.503054, 34.15971]}}, {"type": "Feature", "properties": {"name": "Hollyhock House", "place_type": "cultural_center", "source": "data.lacity.org", "website": "http://barnsdall.org", "address": "4800 Hollywood Boulevard"}, "geometry": {"type": "Point", "coordinates": [-118.294505, 34.101763]}}, {"type": "Feature", "properties": {"name": "Lankershim Arts Center", "place_type": "cultural_center", "source": "data.lacity.org", "website": "http://www.lankershimartscenter.com", "address": "5108 Lankershim Blvd"}, "geometry": {"type": "Point", "coordinates": [-118.37357, 34.163134]}}, {"type": "Feature", "properties": {"name": "Lincoln Heights Youth Arts Center", "place_type": "cultural_center", "source": "data.lacity.org", "website": "http://culturela.org/cultural-centers/lincoln-heights-youth-arts-center/", "address": "2911 Altura Street"}, "geometry": {"type": "Point", "coordinates": [-118.211259, 34.075482]}}, {"type": "Feature", "properties": {"name": "Los Angeles Theatre Center", "place_type": "cultural_center", "source": "data.lacity.org", "website": "http://thelatc.org/", "address": "514 South Spring Street, 2nd Floor"}, "geometry": {"type": "Point", "coordinates": [-118.250118, 34.046869]}}, {"type": "Feature", "properties": {"name": "Madrid Theatre", "place_type": "cultural_center", "source": "data.lacity.org", "website": "http://madridtheatre.culturela.org/", "address": "21622 Sherman Way"}, "geometry": {"type": "Point", "coordinates": [-118.600981, 34.201026]}}, {"type": "Feature", "properties": {"name": "Manchester Youth Arts Center", "place_type": "cultural_center", "source": "data.lacity.org", "website": "http://www.thevisiontheater.com", "address": "3341 West 43rd Place"}, "geometry": {"type": "Point", "coordinates": [-118.330959, 34.004248]}}, {"type": "Feature", "properties": {"name": "McGroarty Arts Center", "place_type": "cultural_center", "source": "data.lacity.org", "website": "http://www.mcgroartyartscenter.org/", "address": "7570 McGroarty Terrace"}, "geometry": {"type": "Point", "coordinates": [-118.29777, 34.250669]}}, {"type": "Feature", "properties": {"name": "Nate Holden Performing Arts Center", "place_type": "cultural_center", "source": "data.lacity.org", "website": "http://www.ebonyrep.org/nhpac.htm", "address": "4718 West Washington Boulevard"}, "geometry": {"type": "Point", "coordinates": [-118.342189, 34.03977]}}, {"type": "Feature", "properties": {"name": "Sun Valley Youth Arts Center", "place_type": "cultural_center", "source": "data.lacity.org", "website": "http://culturela.org/cultural-centers/sun-valley-youth-arts-centerstone-house/", "address": "8642 Sunland Boulevard"}, "geometry": {"type": "Point", "coordinates": [-118.366065, 34.227118]}}, {"type": "Feature", "properties": {"name": "Van Nuys World Airport", "place_type": "cultural_center", "source": "data.lacity.org", "website": "http://culturela.org/programs-and-initiatives/partnered-art-program-between-the-department-of-cultural-affairs-dca-and-the-los-angeles-world-airports-lawa/", "address": "16461 Sherman Way"}, "geometry": {"type": "Point", "coordinates": [-118.491996, 34.201222]}}, {"type": "Feature", "properties": {"name": "Vision Theatre", "place_type": "cultural_center", "source": "data.lacity.org", "website": "http://www.thevisiontheater.com", "address": "3341 West 43rd Place"}, "geometry": {"type": "Point", "coordinates": [-118.330959, 34.004248]}}, {"type": "Feature", "properties": {"name": "Warner Grand Theatre", "place_type": "cultural_center", "source": "data.lacity.org", "website": "http://grandvision.org", "address": "478 W 6th St"}, "geometry": {"type": "Point", "coordinates": [-118.287194, 33.738754]}}, {"type": "Feature", "properties": {"name": "Watts Towers Campus - Charles Mingus Youth Arts Center", "place_type": "cultural_center", "source": "data.lacity.org", "website": "http://www.wattstowers.org", "address": "1727 East 107th Street"}, "geometry": {"type": "Point", "coordinates": [-118.241932, 33.938627]}}, {"type": "Feature", "properties": {"name": "Watts Towers Campus - Dr. Joseph and Bootsie Howard Gallery", "place_type": "cultural_center", "source": "data.lacity.org", "website": "http://www.wattstowers.org", "address": "1727 East 107th Street"}, "geometry": {"type": "Point", "coordinates": [-118.241932, 33.938627]}}, {"type": "Feature", "properties": {"name": "Watts Towers Campus - Noah Purifoy Gallery", "place_type": "cultural_center", "source": "data.lacity.org", "website": "http://www.wattstowers.org", "address": "1727 East 107th Street"}, "geometry": {"type": "Point", "coordinates": [-118.241932, 33.938627]}}, {"type": "Feature", "properties": {"name": "Watts Towers Campus - Watts Towers", "place_type": "cultural_center", "source": "data.lacity.org", "website": "http://www.wattstowers.org", "address": "1727 East 107th Street"}, "geometry": {"type": "Point", "coordinates": [-118.241932, 33.938627]}}, {"type": "Feature", "properties": {"name": "Watts Towers Campus - Watts Towers Arts Center", "place_type": "cultural_center", "source": "data.lacity.org", "website": "http://www.wattstowers.org", "address": "1727 East 107th Street"}, "geometry": {"type": "Point", "coordinates": [-118.241932, 33.938627]}}, {"type": "Feature", "properties": {"name": "William Grant Still Art Center", "place_type": "cultural_center", "source": "data.lacity.org", "website": "https://wgsac.wordpress.com/", "address": "2520 South West View Street"}, "geometry": {"type": "Point", "coordinates": [-118.34815, 34.033061]}}, {"type": "Feature", "properties": {"name": "William Reagh - LA Photography Center", "place_type": "cultural_center", "source": "data.lacity.org", "website": "http://www.fridakahlotheater.org/#!la-photo-lab/calu", "address": "2332 West Fourth Street"}, "geometry": {"type": "Point", "coordinates": [-118.276142, 34.063745]}}]}